C{"position":{"x":-44.25,"y":0.75,"z":-10.0},"rotation":{"x":0.0,"y":0.70710688829422,"z":0.0,"w":-0.7071066498756409},"title":""}
C{"position":{"x":-44.25,"y":0.75,"z":5.0},"rotation":{"x":0.0,"y":0.70710688829422,"z":0.0,"w":-0.7071066498756409},"title":""}
C{"position":{"x":-44.25,"y":0.75,"z":20.0},"rotation":{"x":0.0,"y":0.70710688829422,"z":0.0,"w":-0.7071066498756409},"title":""}
C{"position":{"x":-29.25,"y":0.75,"z":20.0},"rotation":{"x":0.0,"y":-2.1922258497397707e-7,"z":0.0,"w":1.0},"title":""}
C{"position":{"x":-14.25,"y":0.75,"z":20.0},"rotation":{"x":0.0,"y":-2.1922258497397707e-7,"z":0.0,"w":1.0},"title":""}
C{"position":{"x":0.75,"y":0.75,"z":20.0},"rotation":{"x":0.0,"y":-2.1922258497397707e-7,"z":0.0,"w":1.0},"title":""}
C{"position":{"x":15.75,"y":0.75,"z":20.0},"rotation":{"x":0.0,"y":-2.1922258497397707e-7,"z":0.0,"w":1.0},"title":""}
C{"position":{"x":30.75,"y":0.75,"z":20.0},"rotation":{"x":0.0,"y":-2.1922258497397707e-7,"z":0.0,"w":1.0},"title":""}
C{"position":{"x":45.75,"y":0.75,"z":20.0},"rotation":{"x":0.0,"y":-2.1922258497397707e-7,"z":0.0,"w":1.0},"title":""}
C{"position":{"x":45.75,"y":0.75,"z":5.0},"rotation":{"x":0.0,"y":-0.7071066498756409,"z":0.0,"w":-0.7071069478988648},"title":""}
C{"position":{"x":45.75,"y":0.75,"z":-10.0},"rotation":{"x":0.0,"y":-0.7071066498756409,"z":0.0,"w":-0.7071069478988648},"title":""}
C{"position":{"x":30.75,"y":0.75,"z":-20.0},"rotation":{"x":0.0,"y":-1.0,"z":0.0,"w":-2.046077440809313e-7},"title":""}
T{"position":{"x":5.662859916687012,"y":1.2050000429153443,"z":7.809093475341797},"rotation":{"x":5.466738173254271e-8,"y":3.3733105198052729e-8,"z":-7.632973364479767e-9,"w":1.0},"scale":{"x":1.0,"y":1.0,"z":1.0},"constraints":0,"headerText":"Header","descriptionText":"N/A","assignedToNumber":0,"materialNumber":0}
C{"position":{"x":-44.25,"y":0.75,"z":-10.0},"rotation":{"x":0.0,"y":0.70710688829422,"z":0.0,"w":-0.7071066498756409},"title":""}
C{"position":{"x":-44.25,"y":0.75,"z":5.0},"rotation":{"x":0.0,"y":0.70710688829422,"z":0.0,"w":-0.7071066498756409},"title":""}
C{"position":{"x":-44.25,"y":0.75,"z":20.0},"rotation":{"x":0.0,"y":0.70710688829422,"z":0.0,"w":-0.7071066498756409},"title":""}
C{"position":{"x":-29.25,"y":0.75,"z":20.0},"rotation":{"x":0.0,"y":-2.1922258497397707e-7,"z":0.0,"w":1.0},"title":""}
C{"position":{"x":-14.25,"y":0.75,"z":20.0},"rotation":{"x":0.0,"y":-2.1922258497397707e-7,"z":0.0,"w":1.0},"title":""}
C{"position":{"x":0.75,"y":0.75,"z":20.0},"rotation":{"x":0.0,"y":-2.1922258497397707e-7,"z":0.0,"w":1.0},"title":""}
C{"position":{"x":15.75,"y":0.75,"z":20.0},"rotation":{"x":0.0,"y":-2.1922258497397707e-7,"z":0.0,"w":1.0},"title":""}
C{"position":{"x":30.75,"y":0.75,"z":20.0},"rotation":{"x":0.0,"y":-2.1922258497397707e-7,"z":0.0,"w":1.0},"title":""}
C{"position":{"x":45.75,"y":0.75,"z":20.0},"rotation":{"x":0.0,"y":-2.1922258497397707e-7,"z":0.0,"w":1.0},"title":""}
C{"position":{"x":45.75,"y":0.75,"z":5.0},"rotation":{"x":0.0,"y":-0.7071066498756409,"z":0.0,"w":-0.7071069478988648},"title":""}
C{"position":{"x":45.75,"y":0.75,"z":-10.0},"rotation":{"x":0.0,"y":-0.7071066498756409,"z":0.0,"w":-0.7071069478988648},"title":""}
C{"position":{"x":30.75,"y":0.75,"z":-20.0},"rotation":{"x":0.0,"y":-1.0,"z":0.0,"w":-2.046077440809313e-7},"title":""}
T{"position":{"x":5.662859916687012,"y":1.2050000429153443,"z":7.809093475341797},"rotation":{"x":5.466738173254271e-8,"y":3.3733105198052729e-8,"z":-7.632973364479767e-9,"w":1.0},"scale":{"x":1.0,"y":1.0,"z":1.0},"constraints":0,"headerText":"Header","descriptionText":"N/A","assignedToNumber":0,"materialNumber":0}
C{"position":{"x":-44.25,"y":0.75,"z":-10.0},"rotation":{"x":0.0,"y":0.70710688829422,"z":0.0,"w":-0.7071066498756409},"title":""}
C{"position":{"x":-44.25,"y":0.75,"z":5.0},"rotation":{"x":0.0,"y":0.70710688829422,"z":0.0,"w":-0.7071066498756409},"title":""}
C{"position":{"x":-44.25,"y":0.75,"z":20.0},"rotation":{"x":0.0,"y":0.70710688829422,"z":0.0,"w":-0.7071066498756409},"title":""}
C{"position":{"x":-29.25,"y":0.75,"z":20.0},"rotation":{"x":0.0,"y":-2.1922258497397707e-7,"z":0.0,"w":1.0},"title":""}
C{"position":{"x":-14.25,"y":0.75,"z":20.0},"rotation":{"x":0.0,"y":-2.1922258497397707e-7,"z":0.0,"w":1.0},"title":""}
C{"position":{"x":0.75,"y":0.75,"z":20.0},"rotation":{"x":0.0,"y":-2.1922258497397707e-7,"z":0.0,"w":1.0},"title":""}
C{"position":{"x":15.75,"y":0.75,"z":20.0},"rotation":{"x":0.0,"y":-2.1922258497397707e-7,"z":0.0,"w":1.0},"title":""}
C{"position":{"x":30.75,"y":0.75,"z":20.0},"rotation":{"x":0.0,"y":-2.1922258497397707e-7,"z":0.0,"w":1.0},"title":""}
C{"position":{"x":45.75,"y":0.75,"z":20.0},"rotation":{"x":0.0,"y":-2.1922258497397707e-7,"z":0.0,"w":1.0},"title":""}
C{"position":{"x":45.75,"y":0.75,"z":5.0},"rotation":{"x":0.0,"y":-0.7071066498756409,"z":0.0,"w":-0.7071069478988648},"title":""}
C{"position":{"x":45.75,"y":0.75,"z":-10.0},"rotation":{"x":0.0,"y":-0.7071066498756409,"z":0.0,"w":-0.7071069478988648},"title":""}
C{"position":{"x":30.75,"y":0.75,"z":-20.0},"rotation":{"x":0.0,"y":-1.0,"z":0.0,"w":-2.046077440809313e-7},"title":""}
T{"position":{"x":5.662859916687012,"y":1.2050000429153443,"z":7.809093475341797},"rotation":{"x":5.466738173254271e-8,"y":3.3733105198052729e-8,"z":-7.632973364479767e-9,"w":1.0},"scale":{"x":1.0,"y":1.0,"z":1.0},"constraints":0,"headerText":"Header","descriptionText":"N/A","assignedToNumber":0,"materialNumber":0}
C{"position":{"x":-44.25,"y":0.75,"z":-10.0},"rotation":{"x":0.0,"y":0.70710688829422,"z":0.0,"w":-0.7071066498756409},"title":""}
C{"position":{"x":-44.25,"y":0.75,"z":5.0},"rotation":{"x":0.0,"y":0.70710688829422,"z":0.0,"w":-0.7071066498756409},"title":""}
C{"position":{"x":-44.25,"y":0.75,"z":20.0},"rotation":{"x":0.0,"y":0.70710688829422,"z":0.0,"w":-0.7071066498756409},"title":""}
C{"position":{"x":-29.25,"y":0.75,"z":20.0},"rotation":{"x":0.0,"y":-2.1922258497397707e-7,"z":0.0,"w":1.0},"title":""}
C{"position":{"x":-14.25,"y":0.75,"z":20.0},"rotation":{"x":0.0,"y":-2.1922258497397707e-7,"z":0.0,"w":1.0},"title":""}
C{"position":{"x":0.75,"y":0.75,"z":20.0},"rotation":{"x":0.0,"y":-2.1922258497397707e-7,"z":0.0,"w":1.0},"title":""}
C{"position":{"x":15.75,"y":0.75,"z":20.0},"rotation":{"x":0.0,"y":-2.1922258497397707e-7,"z":0.0,"w":1.0},"title":""}
C{"position":{"x":30.75,"y":0.75,"z":20.0},"rotation":{"x":0.0,"y":-2.1922258497397707e-7,"z":0.0,"w":1.0},"title":""}
C{"position":{"x":45.75,"y":0.75,"z":20.0},"rotation":{"x":0.0,"y":-2.1922258497397707e-7,"z":0.0,"w":1.0},"title":""}
C{"position":{"x":45.75,"y":0.75,"z":5.0},"rotation":{"x":0.0,"y":-0.7071066498756409,"z":0.0,"w":-0.7071069478988648},"title":""}
C{"position":{"x":45.75,"y":0.75,"z":-10.0},"rotation":{"x":0.0,"y":-0.7071066498756409,"z":0.0,"w":-0.7071069478988648},"title":""}
C{"position":{"x":30.75,"y":0.75,"z":-20.0},"rotation":{"x":0.0,"y":-1.0,"z":0.0,"w":-2.046077440809313e-7},"title":""}
T{"position":{"x":5.662859916687012,"y":1.2050000429153443,"z":7.809093475341797},"rotation":{"x":5.466738173254271e-8,"y":3.3733105198052729e-8,"z":-7.632973364479767e-9,"w":1.0},"scale":{"x":1.0,"y":1.0,"z":1.0},"constraints":0,"headerText":"Header","descriptionText":"N/A","assignedToNumber":0,"materialNumber":0}
C{"position":{"x":-44.25,"y":0.75,"z":-10.0},"rotation":{"x":0.0,"y":0.70710688829422,"z":0.0,"w":-0.7071066498756409},"title":""}
C{"position":{"x":-44.25,"y":0.75,"z":5.0},"rotation":{"x":0.0,"y":0.70710688829422,"z":0.0,"w":-0.7071066498756409},"title":""}
C{"position":{"x":-44.25,"y":0.75,"z":20.0},"rotation":{"x":0.0,"y":0.70710688829422,"z":0.0,"w":-0.7071066498756409},"title":""}
C{"position":{"x":-29.25,"y":0.75,"z":20.0},"rotation":{"x":0.0,"y":-2.1922258497397707e-7,"z":0.0,"w":1.0},"title":""}
C{"position":{"x":-14.25,"y":0.75,"z":20.0},"rotation":{"x":0.0,"y":-2.1922258497397707e-7,"z":0.0,"w":1.0},"title":""}
C{"position":{"x":0.75,"y":0.75,"z":20.0},"rotation":{"x":0.0,"y":-2.1922258497397707e-7,"z":0.0,"w":1.0},"title":""}
C{"position":{"x":15.75,"y":0.75,"z":20.0},"rotation":{"x":0.0,"y":-2.1922258497397707e-7,"z":0.0,"w":1.0},"title":""}
C{"position":{"x":30.75,"y":0.75,"z":20.0},"rotation":{"x":0.0,"y":-2.1922258497397707e-7,"z":0.0,"w":1.0},"title":""}
C{"position":{"x":45.75,"y":0.75,"z":20.0},"rotation":{"x":0.0,"y":-2.1922258497397707e-7,"z":0.0,"w":1.0},"title":""}
C{"position":{"x":45.75,"y":0.75,"z":5.0},"rotation":{"x":0.0,"y":-0.7071066498756409,"z":0.0,"w":-0.7071069478988648},"title":""}
C{"position":{"x":45.75,"y":0.75,"z":-10.0},"rotation":{"x":0.0,"y":-0.7071066498756409,"z":0.0,"w":-0.7071069478988648},"title":""}
C{"position":{"x":30.75,"y":0.75,"z":-20.0},"rotation":{"x":0.0,"y":-1.0,"z":0.0,"w":-2.046077440809313e-7},"title":""}
T{"position":{"x":5.662859916687012,"y":1.2050000429153443,"z":7.809093475341797},"rotation":{"x":5.466738173254271e-8,"y":3.3733105198052729e-8,"z":-7.632973364479767e-9,"w":1.0},"scale":{"x":1.0,"y":1.0,"z":1.0},"constraints":0,"headerText":"Header","descriptionText":"N/A","assignedToNumber":0,"materialNumber":0}
C{"position":{"x":-44.25,"y":0.75,"z":-10.0},"rotation":{"x":0.0,"y":0.70710688829422,"z":0.0,"w":-0.7071066498756409},"title":""}
C{"position":{"x":-44.25,"y":0.75,"z":5.0},"rotation":{"x":0.0,"y":0.70710688829422,"z":0.0,"w":-0.7071066498756409},"title":""}
C{"position":{"x":-44.25,"y":0.75,"z":20.0},"rotation":{"x":0.0,"y":0.70710688829422,"z":0.0,"w":-0.7071066498756409},"title":""}
C{"position":{"x":-29.25,"y":0.75,"z":20.0},"rotation":{"x":0.0,"y":-2.1922258497397707e-7,"z":0.0,"w":1.0},"title":""}
C{"position":{"x":-14.25,"y":0.75,"z":20.0},"rotation":{"x":0.0,"y":-2.1922258497397707e-7,"z":0.0,"w":1.0},"title":""}
C{"position":{"x":0.75,"y":0.75,"z":20.0},"rotation":{"x":0.0,"y":-2.1922258497397707e-7,"z":0.0,"w":1.0},"title":""}
C{"position":{"x":15.75,"y":0.75,"z":20.0},"rotation":{"x":0.0,"y":-2.1922258497397707e-7,"z":0.0,"w":1.0},"title":""}
C{"position":{"x":30.75,"y":0.75,"z":20.0},"rotation":{"x":0.0,"y":-2.1922258497397707e-7,"z":0.0,"w":1.0},"title":""}
C{"position":{"x":45.75,"y":0.75,"z":20.0},"rotation":{"x":0.0,"y":-2.1922258497397707e-7,"z":0.0,"w":1.0},"title":""}
C{"position":{"x":45.75,"y":0.75,"z":5.0},"rotation":{"x":0.0,"y":-0.7071066498756409,"z":0.0,"w":-0.7071069478988648},"title":""}
C{"position":{"x":45.75,"y":0.75,"z":-10.0},"rotation":{"x":0.0,"y":-0.7071066498756409,"z":0.0,"w":-0.7071069478988648},"title":""}
C{"position":{"x":30.75,"y":0.75,"z":-20.0},"rotation":{"x":0.0,"y":-1.0,"z":0.0,"w":-2.046077440809313e-7},"title":""}
T{"position":{"x":5.662859916687012,"y":1.2050000429153443,"z":7.809093475341797},"rotation":{"x":5.466738173254271e-8,"y":3.3733105198052729e-8,"z":-7.632973364479767e-9,"w":1.0},"scale":{"x":1.0,"y":1.0,"z":1.0},"constraints":0,"headerText":"Header","descriptionText":"N/A","assignedToNumber":0,"materialNumber":0}
C{"position":{"x":-44.25,"y":0.75,"z":-10.0},"rotation":{"x":0.0,"y":0.70710688829422,"z":0.0,"w":-0.7071066498756409},"title":""}
C{"position":{"x":-44.25,"y":0.75,"z":5.0},"rotation":{"x":0.0,"y":0.70710688829422,"z":0.0,"w":-0.7071066498756409},"title":""}
C{"position":{"x":-44.25,"y":0.75,"z":20.0},"rotation":{"x":0.0,"y":0.70710688829422,"z":0.0,"w":-0.7071066498756409},"title":""}
C{"position":{"x":-29.25,"y":0.75,"z":20.0},"rotation":{"x":0.0,"y":-2.1922258497397707e-7,"z":0.0,"w":1.0},"title":""}
C{"position":{"x":-14.25,"y":0.75,"z":20.0},"rotation":{"x":0.0,"y":-2.1922258497397707e-7,"z":0.0,"w":1.0},"title":""}
C{"position":{"x":0.75,"y":0.75,"z":20.0},"rotation":{"x":0.0,"y":-2.1922258497397707e-7,"z":0.0,"w":1.0},"title":""}
C{"position":{"x":15.75,"y":0.75,"z":20.0},"rotation":{"x":0.0,"y":-2.1922258497397707e-7,"z":0.0,"w":1.0},"title":""}
C{"position":{"x":30.75,"y":0.75,"z":20.0},"rotation":{"x":0.0,"y":-2.1922258497397707e-7,"z":0.0,"w":1.0},"title":""}
C{"position":{"x":45.75,"y":0.75,"z":20.0},"rotation":{"x":0.0,"y":-2.1922258497397707e-7,"z":0.0,"w":1.0},"title":""}
C{"position":{"x":45.75,"y":0.75,"z":5.0},"rotation":{"x":0.0,"y":-0.7071066498756409,"z":0.0,"w":-0.7071069478988648},"title":""}
C{"position":{"x":45.75,"y":0.75,"z":-10.0},"rotation":{"x":0.0,"y":-0.7071066498756409,"z":0.0,"w":-0.7071069478988648},"title":""}
C{"position":{"x":30.75,"y":0.75,"z":-20.0},"rotation":{"x":0.0,"y":-1.0,"z":0.0,"w":-2.046077440809313e-7},"title":""}
T{"position":{"x":5.662859916687012,"y":1.2050000429153443,"z":7.809093475341797},"rotation":{"x":5.466738173254271e-8,"y":3.3733105198052729e-8,"z":-7.632973364479767e-9,"w":1.0},"scale":{"x":1.0,"y":1.0,"z":1.0},"constraints":0,"headerText":"Header","descriptionText":"N/A","assignedToNumber":0,"materialNumber":0}
C{"position":{"x":-44.25,"y":0.75,"z":-10.0},"rotation":{"x":0.0,"y":0.70710688829422,"z":0.0,"w":-0.7071066498756409},"title":""}
C{"position":{"x":-44.25,"y":0.75,"z":5.0},"rotation":{"x":0.0,"y":0.70710688829422,"z":0.0,"w":-0.7071066498756409},"title":""}
C{"position":{"x":-44.25,"y":0.75,"z":20.0},"rotation":{"x":0.0,"y":0.70710688829422,"z":0.0,"w":-0.7071066498756409},"title":""}
C{"position":{"x":-29.25,"y":0.75,"z":20.0},"rotation":{"x":0.0,"y":-2.1922258497397707e-7,"z":0.0,"w":1.0},"title":""}
C{"position":{"x":-14.25,"y":0.75,"z":20.0},"rotation":{"x":0.0,"y":-2.1922258497397707e-7,"z":0.0,"w":1.0},"title":""}
C{"position":{"x":0.75,"y":0.75,"z":20.0},"rotation":{"x":0.0,"y":-2.1922258497397707e-7,"z":0.0,"w":1.0},"title":"to"}
C{"position":{"x":15.75,"y":0.75,"z":20.0},"rotation":{"x":0.0,"y":-2.1922258497397707e-7,"z":0.0,"w":1.0},"title":""}
C{"position":{"x":30.75,"y":0.75,"z":20.0},"rotation":{"x":0.0,"y":-2.1922258497397707e-7,"z":0.0,"w":1.0},"title":""}
C{"position":{"x":45.75,"y":0.75,"z":20.0},"rotation":{"x":0.0,"y":-2.1922258497397707e-7,"z":0.0,"w":1.0},"title":""}
C{"position":{"x":45.75,"y":0.75,"z":5.0},"rotation":{"x":0.0,"y":-0.7071066498756409,"z":0.0,"w":-0.7071069478988648},"title":""}
C{"position":{"x":45.75,"y":0.75,"z":-10.0},"rotation":{"x":0.0,"y":-0.7071066498756409,"z":0.0,"w":-0.7071069478988648},"title":""}
C{"position":{"x":30.75,"y":0.75,"z":-20.0},"rotation":{"x":0.0,"y":-1.0,"z":0.0,"w":-2.046077440809313e-7},"title":""}
T{"position":{"x":0.75,"y":6.660152912139893,"z":20.0},"rotation":{"x":-0.7071068286895752,"y":-1.5501379380111758e-7,"z":-1.5501379380111758e-7,"w":0.7071068286895752},"scale":{"x":3.750495195388794,"y":0.607072114944458,"z":1.785855770111084},"constraints":122,"headerText":"Add factory theme","descriptionText":"create a simple low poly box / factory place","assignedToNumber":1,"materialNumber":2}
C{"position":{"x":-44.25,"y":0.75,"z":-10.0},"rotation":{"x":0.0,"y":0.70710688829422,"z":0.0,"w":-0.7071066498756409},"title":""}
C{"position":{"x":-44.25,"y":0.75,"z":5.0},"rotation":{"x":0.0,"y":0.70710688829422,"z":0.0,"w":-0.7071066498756409},"title":""}
C{"position":{"x":-44.25,"y":0.75,"z":20.0},"rotation":{"x":0.0,"y":0.70710688829422,"z":0.0,"w":-0.7071066498756409},"title":""}
C{"position":{"x":-29.25,"y":0.75,"z":20.0},"rotation":{"x":0.0,"y":-2.1922258497397707e-7,"z":0.0,"w":1.0},"title":""}
C{"position":{"x":-14.25,"y":0.75,"z":20.0},"rotation":{"x":0.0,"y":-2.1922258497397707e-7,"z":0.0,"w":1.0},"title":""}
C{"position":{"x":0.75,"y":0.75,"z":20.0},"rotation":{"x":0.0,"y":-2.1922258497397707e-7,"z":0.0,"w":1.0},"title":"to do"}
C{"position":{"x":15.75,"y":0.75,"z":20.0},"rotation":{"x":0.0,"y":-2.1922258497397707e-7,"z":0.0,"w":1.0},"title":""}
C{"position":{"x":30.75,"y":0.75,"z":20.0},"rotation":{"x":0.0,"y":-2.1922258497397707e-7,"z":0.0,"w":1.0},"title":""}
C{"position":{"x":45.75,"y":0.75,"z":20.0},"rotation":{"x":0.0,"y":-2.1922258497397707e-7,"z":0.0,"w":1.0},"title":""}
C{"position":{"x":45.75,"y":0.75,"z":5.0},"rotation":{"x":0.0,"y":-0.7071066498756409,"z":0.0,"w":-0.7071069478988648},"title":""}
C{"position":{"x":45.75,"y":0.75,"z":-10.0},"rotation":{"x":0.0,"y":-0.7071066498756409,"z":0.0,"w":-0.7071069478988648},"title":""}
C{"position":{"x":30.75,"y":0.75,"z":-20.0},"rotation":{"x":0.0,"y":-1.0,"z":0.0,"w":-2.046077440809313e-7},"title":""}
T{"position":{"x":0.75,"y":2.463481903076172,"z":20.0},"rotation":{"x":-0.7071068286895752,"y":-1.5501379380111758e-7,"z":-1.5501379380111758e-7,"w":0.7071068286895752},"scale":{"x":4.48823356628418,"y":0.5016809105873108,"z":1.9966381788253785},"constraints":122,"headerText":"Add factory theme","descriptionText":"create a simple low poly box / factory place","assignedToNumber":1,"materialNumber":2}
C{"position":{"x":-44.25,"y":0.75,"z":-10.0},"rotation":{"x":0.0,"y":0.70710688829422,"z":0.0,"w":-0.7071066498756409},"title":""}
C{"position":{"x":-44.25,"y":0.75,"z":5.0},"rotation":{"x":0.0,"y":0.70710688829422,"z":0.0,"w":-0.7071066498756409},"title":""}
C{"position":{"x":-44.25,"y":0.75,"z":20.0},"rotation":{"x":0.0,"y":0.70710688829422,"z":0.0,"w":-0.7071066498756409},"title":""}
C{"position":{"x":-29.25,"y":0.75,"z":20.0},"rotation":{"x":0.0,"y":-2.1922258497397707e-7,"z":0.0,"w":1.0},"title":"sdasdw"}
C{"position":{"x":-14.25,"y":0.75,"z":20.0},"rotation":{"x":0.0,"y":-2.1922258497397707e-7,"z":0.0,"w":1.0},"title":"dsdssw"}
C{"position":{"x":0.75,"y":0.75,"z":20.0},"rotation":{"x":0.0,"y":-2.1922258497397707e-7,"z":0.0,"w":1.0},"title":"to do"}
C{"position":{"x":15.75,"y":0.75,"z":20.0},"rotation":{"x":0.0,"y":-2.1922258497397707e-7,"z":0.0,"w":1.0},"title":""}
C{"position":{"x":30.75,"y":0.75,"z":20.0},"rotation":{"x":0.0,"y":-2.1922258497397707e-7,"z":0.0,"w":1.0},"title":""}
C{"position":{"x":45.75,"y":0.75,"z":20.0},"rotation":{"x":0.0,"y":-2.1922258497397707e-7,"z":0.0,"w":1.0},"title":""}
C{"position":{"x":45.75,"y":0.75,"z":5.0},"rotation":{"x":0.0,"y":-0.7071066498756409,"z":0.0,"w":-0.7071069478988648},"title":""}
C{"position":{"x":45.75,"y":0.75,"z":-10.0},"rotation":{"x":0.0,"y":-0.7071066498756409,"z":0.0,"w":-0.7071069478988648},"title":""}
C{"position":{"x":30.75,"y":0.75,"z":-20.0},"rotation":{"x":0.0,"y":-1.0,"z":0.0,"w":-2.046077440809313e-7},"title":""}
T{"position":{"x":0.75,"y":2.500000476837158,"z":20.0},"rotation":{"x":-0.7071068286895752,"y":-1.5501379380111758e-7,"z":-1.5501379380111758e-7,"w":0.7071068286895752},"scale":{"x":4.5,"y":0.5,"z":2.0},"constraints":122,"headerText":"Add factory theme","descriptionText":"create a simple low poly box / factory place","assignedToNumber":1,"materialNumber":2}
T{"position":{"x":11.504645347595215,"y":0.25,"z":3.1750621795654299},"rotation":{"x":0.0,"y":0.0,"z":0.0,"w":1.0},"scale":{"x":4.5,"y":0.5,"z":2.0},"constraints":112,"headerText":"Header","descriptionText":"N/A","assignedToNumber":0,"materialNumber":0}
T{"position":{"x":11.402156829833985,"y":0.7436243891716003,"z":2.926393508911133},"rotation":{"x":0.0,"y":0.0,"z":0.0,"w":1.0},"scale":{"x":4.5,"y":0.5,"z":2.0},"constraints":112,"headerText":"Header","descriptionText":"N/A","assignedToNumber":0,"materialNumber":0}
T{"position":{"x":11.550479888916016,"y":2.7374045848846437,"z":1.5551300048828126},"rotation":{"x":0.0,"y":0.0,"z":0.0,"w":1.0},"scale":{"x":4.5,"y":0.5,"z":2.0},"constraints":112,"headerText":"Header","descriptionText":"N/A","assignedToNumber":0,"materialNumber":0}
T{"position":{"x":11.295565605163575,"y":1.2436243295669556,"z":2.620450973510742},"rotation":{"x":0.0,"y":0.0,"z":0.0,"w":1.0},"scale":{"x":4.5,"y":0.5,"z":2.0},"constraints":112,"headerText":"Header","descriptionText":"N/A","assignedToNumber":0,"materialNumber":0}
T{"position":{"x":11.139144897460938,"y":1.7390470504760743,"z":2.3271756172180177},"rotation":{"x":0.0,"y":0.0,"z":0.0,"w":1.0},"scale":{"x":4.5,"y":0.5,"z":2.0},"constraints":112,"headerText":"Header","descriptionText":"N/A","assignedToNumber":0,"materialNumber":0}
T{"position":{"x":9.763336181640625,"y":2.239047050476074,"z":3.3324735164642336},"rotation":{"x":0.0,"y":0.0,"z":0.0,"w":1.0},"scale":{"x":4.5,"y":0.5,"z":2.0},"constraints":112,"headerText":"Header","descriptionText":"N/A","assignedToNumber":0,"materialNumber":0}
T{"position":{"x":5.243348598480225,"y":1.2049999237060547,"z":6.962019920349121},"rotation":{"x":-4.691932176115188e-9,"y":9.215845153676128e-8,"z":1.5170787293072864e-8,"w":1.0},"scale":{"x":1.0,"y":1.0,"z":1.0},"constraints":0,"headerText":"Header","descriptionText":"N/A","assignedToNumber":0,"materialNumber":0}
C{"position":{"x":-44.25,"y":0.75,"z":-10.0},"rotation":{"x":0.0,"y":0.70710688829422,"z":0.0,"w":-0.7071066498756409},"title":""}
C{"position":{"x":-44.25,"y":0.75,"z":5.0},"rotation":{"x":0.0,"y":0.70710688829422,"z":0.0,"w":-0.7071066498756409},"title":""}
C{"position":{"x":-44.25,"y":0.75,"z":20.0},"rotation":{"x":0.0,"y":0.70710688829422,"z":0.0,"w":-0.7071066498756409},"title":""}
C{"position":{"x":-29.25,"y":0.75,"z":20.0},"rotation":{"x":0.0,"y":-2.1922258497397707e-7,"z":0.0,"w":1.0},"title":"sdasdw"}
C{"position":{"x":-14.25,"y":0.75,"z":20.0},"rotation":{"x":0.0,"y":-2.1922258497397707e-7,"z":0.0,"w":1.0},"title":"dsdssw"}
C{"position":{"x":0.75,"y":0.75,"z":20.0},"rotation":{"x":0.0,"y":-2.1922258497397707e-7,"z":0.0,"w":1.0},"title":"to do"}
C{"position":{"x":15.75,"y":0.75,"z":20.0},"rotation":{"x":0.0,"y":-2.1922258497397707e-7,"z":0.0,"w":1.0},"title":""}
C{"position":{"x":30.75,"y":0.75,"z":20.0},"rotation":{"x":0.0,"y":-2.1922258497397707e-7,"z":0.0,"w":1.0},"title":""}
C{"position":{"x":45.75,"y":0.75,"z":20.0},"rotation":{"x":0.0,"y":-2.1922258497397707e-7,"z":0.0,"w":1.0},"title":""}
C{"position":{"x":45.75,"y":0.75,"z":5.0},"rotation":{"x":0.0,"y":-0.7071066498756409,"z":0.0,"w":-0.7071069478988648},"title":""}
C{"position":{"x":45.75,"y":0.75,"z":-10.0},"rotation":{"x":0.0,"y":-0.7071066498756409,"z":0.0,"w":-0.7071069478988648},"title":""}
C{"position":{"x":30.75,"y":0.75,"z":-20.0},"rotation":{"x":0.0,"y":-1.0,"z":0.0,"w":-2.046077440809313e-7},"title":""}
T{"position":{"x":0.75,"y":2.500000476837158,"z":20.0},"rotation":{"x":-0.7071068286895752,"y":-1.5501379380111758e-7,"z":-1.5501379380111758e-7,"w":0.7071068286895752},"scale":{"x":4.5,"y":0.5,"z":2.0},"constraints":122,"headerText":"Add factory theme","descriptionText":"create a simple low poly box / factory place","assignedToNumber":1,"materialNumber":2}
T{"position":{"x":11.504645347595215,"y":0.25,"z":3.1750621795654299},"rotation":{"x":0.0,"y":0.0,"z":0.0,"w":1.0},"scale":{"x":4.5,"y":0.5,"z":2.0},"constraints":112,"headerText":"Header","descriptionText":"N/A","assignedToNumber":0,"materialNumber":0}
T{"position":{"x":11.402156829833985,"y":0.7436243891716003,"z":2.926393508911133},"rotation":{"x":0.0,"y":0.0,"z":0.0,"w":1.0},"scale":{"x":4.5,"y":0.5,"z":2.0},"constraints":112,"headerText":"Header","descriptionText":"N/A","assignedToNumber":0,"materialNumber":0}
T{"position":{"x":11.550479888916016,"y":2.7374045848846437,"z":1.5551300048828126},"rotation":{"x":0.0,"y":0.0,"z":0.0,"w":1.0},"scale":{"x":4.5,"y":0.5,"z":2.0},"constraints":112,"headerText":"Header","descriptionText":"N/A","assignedToNumber":0,"materialNumber":0}
T{"position":{"x":11.295565605163575,"y":1.2436243295669556,"z":2.620450973510742},"rotation":{"x":0.0,"y":0.0,"z":0.0,"w":1.0},"scale":{"x":4.5,"y":0.5,"z":2.0},"constraints":112,"headerText":"Header","descriptionText":"N/A","assignedToNumber":0,"materialNumber":0}
T{"position":{"x":11.139144897460938,"y":1.7390470504760743,"z":2.3271756172180177},"rotation":{"x":0.0,"y":0.0,"z":0.0,"w":1.0},"scale":{"x":4.5,"y":0.5,"z":2.0},"constraints":112,"headerText":"Header","descriptionText":"N/A","assignedToNumber":0,"materialNumber":0}
T{"position":{"x":9.763336181640625,"y":2.239047050476074,"z":3.3324735164642336},"rotation":{"x":0.0,"y":0.0,"z":0.0,"w":1.0},"scale":{"x":4.5,"y":0.5,"z":2.0},"constraints":112,"headerText":"Header","descriptionText":"N/A","assignedToNumber":0,"materialNumber":0}
T{"position":{"x":5.243348598480225,"y":1.2049999237060547,"z":6.962019920349121},"rotation":{"x":-4.691932176115188e-9,"y":9.215845153676128e-8,"z":1.5170787293072864e-8,"w":1.0},"scale":{"x":1.0,"y":1.0,"z":1.0},"constraints":0,"headerText":"Header","descriptionText":"N/A","assignedToNumber":0,"materialNumber":0}
C{"position":{"x":-44.25,"y":0.75,"z":-10.0},"rotation":{"x":0.0,"y":0.70710688829422,"z":0.0,"w":-0.7071066498756409},"title":""}
C{"position":{"x":-44.25,"y":0.75,"z":5.0},"rotation":{"x":0.0,"y":0.70710688829422,"z":0.0,"w":-0.7071066498756409},"title":""}
C{"position":{"x":-44.25,"y":0.75,"z":20.0},"rotation":{"x":0.0,"y":0.70710688829422,"z":0.0,"w":-0.7071066498756409},"title":""}
C{"position":{"x":-29.25,"y":0.75,"z":20.0},"rotation":{"x":0.0,"y":-2.1922258497397707e-7,"z":0.0,"w":1.0},"title":"sdasdw"}
C{"position":{"x":-14.25,"y":0.75,"z":20.0},"rotation":{"x":0.0,"y":-2.1922258497397707e-7,"z":0.0,"w":1.0},"title":"dsdssw"}
C{"position":{"x":0.75,"y":0.75,"z":20.0},"rotation":{"x":0.0,"y":-2.1922258497397707e-7,"z":0.0,"w":1.0},"title":"to do"}
C{"position":{"x":15.75,"y":0.75,"z":20.0},"rotation":{"x":0.0,"y":-2.1922258497397707e-7,"z":0.0,"w":1.0},"title":""}
C{"position":{"x":30.75,"y":0.75,"z":20.0},"rotation":{"x":0.0,"y":-2.1922258497397707e-7,"z":0.0,"w":1.0},"title":""}
C{"position":{"x":45.75,"y":0.75,"z":20.0},"rotation":{"x":0.0,"y":-2.1922258497397707e-7,"z":0.0,"w":1.0},"title":""}
C{"position":{"x":45.75,"y":0.75,"z":5.0},"rotation":{"x":0.0,"y":-0.7071066498756409,"z":0.0,"w":-0.7071069478988648},"title":""}
C{"position":{"x":45.75,"y":0.75,"z":-10.0},"rotation":{"x":0.0,"y":-0.7071066498756409,"z":0.0,"w":-0.7071069478988648},"title":""}
C{"position":{"x":30.75,"y":0.75,"z":-20.0},"rotation":{"x":0.0,"y":-1.0,"z":0.0,"w":-2.046077440809313e-7},"title":""}
T{"position":{"x":0.75,"y":2.500000476837158,"z":20.0},"rotation":{"x":-0.7071068286895752,"y":-1.5501379380111758e-7,"z":-1.5501379380111758e-7,"w":0.7071068286895752},"scale":{"x":4.5,"y":0.5,"z":2.0},"constraints":122,"headerText":"Add factory theme","descriptionText":"create a simple low poly box / factory place","assignedToNumber":1,"materialNumber":2}
T{"position":{"x":11.504645347595215,"y":0.25,"z":3.1750621795654299},"rotation":{"x":0.0,"y":0.0,"z":0.0,"w":1.0},"scale":{"x":4.5,"y":0.5,"z":2.0},"constraints":112,"headerText":"Header","descriptionText":"N/A","assignedToNumber":0,"materialNumber":0}
T{"position":{"x":11.402156829833985,"y":0.7436243891716003,"z":2.926393508911133},"rotation":{"x":0.0,"y":0.0,"z":0.0,"w":1.0},"scale":{"x":4.5,"y":0.5,"z":2.0},"constraints":112,"headerText":"Header","descriptionText":"N/A","assignedToNumber":0,"materialNumber":0}
T{"position":{"x":11.550479888916016,"y":2.7374045848846437,"z":1.5551300048828126},"rotation":{"x":0.0,"y":0.0,"z":0.0,"w":1.0},"scale":{"x":4.5,"y":0.5,"z":2.0},"constraints":112,"headerText":"Header","descriptionText":"N/A","assignedToNumber":0,"materialNumber":0}
T{"position":{"x":11.295565605163575,"y":1.2436243295669556,"z":2.620450973510742},"rotation":{"x":0.0,"y":0.0,"z":0.0,"w":1.0},"scale":{"x":4.5,"y":0.5,"z":2.0},"constraints":112,"headerText":"Header","descriptionText":"N/A","assignedToNumber":0,"materialNumber":0}
T{"position":{"x":11.139144897460938,"y":1.7390470504760743,"z":2.3271756172180177},"rotation":{"x":0.0,"y":0.0,"z":0.0,"w":1.0},"scale":{"x":4.5,"y":0.5,"z":2.0},"constraints":112,"headerText":"Header","descriptionText":"N/A","assignedToNumber":0,"materialNumber":0}
T{"position":{"x":9.763336181640625,"y":2.239047050476074,"z":3.3324735164642336},"rotation":{"x":0.0,"y":0.0,"z":0.0,"w":1.0},"scale":{"x":4.5,"y":0.5,"z":2.0},"constraints":112,"headerText":"Header","descriptionText":"N/A","assignedToNumber":0,"materialNumber":0}
T{"position":{"x":5.243348598480225,"y":1.2049999237060547,"z":6.962019920349121},"rotation":{"x":-4.691932176115188e-9,"y":9.215845153676128e-8,"z":1.5170787293072864e-8,"w":1.0},"scale":{"x":1.0,"y":1.0,"z":1.0},"constraints":0,"headerText":"Header","descriptionText":"N/A","assignedToNumber":0,"materialNumber":0}
C{"position":{"x":-44.25,"y":0.75,"z":-10.0},"rotation":{"x":0.0,"y":0.70710688829422,"z":0.0,"w":-0.7071066498756409},"title":""}
C{"position":{"x":-44.25,"y":0.75,"z":5.0},"rotation":{"x":0.0,"y":0.70710688829422,"z":0.0,"w":-0.7071066498756409},"title":""}
C{"position":{"x":-44.25,"y":0.75,"z":20.0},"rotation":{"x":0.0,"y":0.70710688829422,"z":0.0,"w":-0.7071066498756409},"title":""}
C{"position":{"x":-29.25,"y":0.75,"z":20.0},"rotation":{"x":0.0,"y":-2.1922258497397707e-7,"z":0.0,"w":1.0},"title":"sdasdw"}
C{"position":{"x":-14.25,"y":0.75,"z":20.0},"rotation":{"x":0.0,"y":-2.1922258497397707e-7,"z":0.0,"w":1.0},"title":"dsdssw"}
C{"position":{"x":0.75,"y":0.75,"z":20.0},"rotation":{"x":0.0,"y":-2.1922258497397707e-7,"z":0.0,"w":1.0},"title":"to do"}
C{"position":{"x":15.75,"y":0.75,"z":20.0},"rotation":{"x":0.0,"y":-2.1922258497397707e-7,"z":0.0,"w":1.0},"title":""}
C{"position":{"x":30.75,"y":0.75,"z":20.0},"rotation":{"x":0.0,"y":-2.1922258497397707e-7,"z":0.0,"w":1.0},"title":""}
C{"position":{"x":45.75,"y":0.75,"z":20.0},"rotation":{"x":0.0,"y":-2.1922258497397707e-7,"z":0.0,"w":1.0},"title":""}
C{"position":{"x":45.75,"y":0.75,"z":5.0},"rotation":{"x":0.0,"y":-0.7071066498756409,"z":0.0,"w":-0.7071069478988648},"title":""}
C{"position":{"x":45.75,"y":0.75,"z":-10.0},"rotation":{"x":0.0,"y":-0.7071066498756409,"z":0.0,"w":-0.7071069478988648},"title":""}
C{"position":{"x":30.75,"y":0.75,"z":-20.0},"rotation":{"x":0.0,"y":-1.0,"z":0.0,"w":-2.046077440809313e-7},"title":""}
T{"position":{"x":0.75,"y":2.500000476837158,"z":20.0},"rotation":{"x":-0.7071068286895752,"y":-1.5501379380111758e-7,"z":-1.5501379380111758e-7,"w":0.7071068286895752},"scale":{"x":4.5,"y":0.5,"z":2.0},"constraints":122,"headerText":"Add factory theme","descriptionText":"create a simple low poly box / factory place","assignedToNumber":1,"materialNumber":2}
T{"position":{"x":11.504645347595215,"y":0.25,"z":3.1750621795654299},"rotation":{"x":0.0,"y":0.0,"z":0.0,"w":1.0},"scale":{"x":4.5,"y":0.5,"z":2.0},"constraints":112,"headerText":"Header","descriptionText":"N/A","assignedToNumber":0,"materialNumber":0}
T{"position":{"x":11.402156829833985,"y":0.7436243891716003,"z":2.926393508911133},"rotation":{"x":0.0,"y":0.0,"z":0.0,"w":1.0},"scale":{"x":4.5,"y":0.5,"z":2.0},"constraints":112,"headerText":"Header","descriptionText":"N/A","assignedToNumber":0,"materialNumber":0}
T{"position":{"x":11.550479888916016,"y":2.7374045848846437,"z":1.5551300048828126},"rotation":{"x":0.0,"y":0.0,"z":0.0,"w":1.0},"scale":{"x":4.5,"y":0.5,"z":2.0},"constraints":112,"headerText":"Header","descriptionText":"N/A","assignedToNumber":0,"materialNumber":0}
T{"position":{"x":11.295565605163575,"y":1.2436243295669556,"z":2.620450973510742},"rotation":{"x":0.0,"y":0.0,"z":0.0,"w":1.0},"scale":{"x":4.5,"y":0.5,"z":2.0},"constraints":112,"headerText":"Header","descriptionText":"N/A","assignedToNumber":0,"materialNumber":0}
T{"position":{"x":11.139144897460938,"y":1.7390470504760743,"z":2.3271756172180177},"rotation":{"x":0.0,"y":0.0,"z":0.0,"w":1.0},"scale":{"x":4.5,"y":0.5,"z":2.0},"constraints":112,"headerText":"Header","descriptionText":"N/A","assignedToNumber":0,"materialNumber":0}
T{"position":{"x":9.763336181640625,"y":2.239047050476074,"z":3.3324735164642336},"rotation":{"x":0.0,"y":0.0,"z":0.0,"w":1.0},"scale":{"x":4.5,"y":0.5,"z":2.0},"constraints":112,"headerText":"Header","descriptionText":"N/A","assignedToNumber":0,"materialNumber":0}
T{"position":{"x":5.243348598480225,"y":1.2049999237060547,"z":6.962019920349121},"rotation":{"x":-4.691932176115188e-9,"y":9.215845153676128e-8,"z":1.5170787293072864e-8,"w":1.0},"scale":{"x":1.0,"y":1.0,"z":1.0},"constraints":0,"headerText":"Header","descriptionText":"N/A","assignedToNumber":0,"materialNumber":0}
C{"position":{"x":-44.25,"y":0.75,"z":-10.0},"rotation":{"x":0.0,"y":0.70710688829422,"z":0.0,"w":-0.7071066498756409},"title":""}
C{"position":{"x":-44.25,"y":0.75,"z":5.0},"rotation":{"x":0.0,"y":0.70710688829422,"z":0.0,"w":-0.7071066498756409},"title":""}
C{"position":{"x":-44.25,"y":0.75,"z":20.0},"rotation":{"x":0.0,"y":0.70710688829422,"z":0.0,"w":-0.7071066498756409},"title":""}
C{"position":{"x":-29.25,"y":0.75,"z":20.0},"rotation":{"x":0.0,"y":-2.1922258497397707e-7,"z":0.0,"w":1.0},"title":"sdasdw"}
C{"position":{"x":-14.25,"y":0.75,"z":20.0},"rotation":{"x":0.0,"y":-2.1922258497397707e-7,"z":0.0,"w":1.0},"title":"dsdssw"}
C{"position":{"x":0.75,"y":0.75,"z":20.0},"rotation":{"x":0.0,"y":-2.1922258497397707e-7,"z":0.0,"w":1.0},"title":"to do"}
C{"position":{"x":15.75,"y":0.75,"z":20.0},"rotation":{"x":0.0,"y":-2.1922258497397707e-7,"z":0.0,"w":1.0},"title":""}
C{"position":{"x":30.75,"y":0.75,"z":20.0},"rotation":{"x":0.0,"y":-2.1922258497397707e-7,"z":0.0,"w":1.0},"title":""}
C{"position":{"x":45.75,"y":0.75,"z":20.0},"rotation":{"x":0.0,"y":-2.1922258497397707e-7,"z":0.0,"w":1.0},"title":""}
C{"position":{"x":45.75,"y":0.75,"z":5.0},"rotation":{"x":0.0,"y":-0.7071066498756409,"z":0.0,"w":-0.7071069478988648},"title":""}
C{"position":{"x":45.75,"y":0.75,"z":-10.0},"rotation":{"x":0.0,"y":-0.7071066498756409,"z":0.0,"w":-0.7071069478988648},"title":""}
C{"position":{"x":30.75,"y":0.75,"z":-20.0},"rotation":{"x":0.0,"y":-1.0,"z":0.0,"w":-2.046077440809313e-7},"title":""}
T{"position":{"x":0.75,"y":2.500000476837158,"z":20.0},"rotation":{"x":-0.7071068286895752,"y":-1.5501379380111758e-7,"z":-1.5501379380111758e-7,"w":0.7071068286895752},"scale":{"x":4.5,"y":0.5,"z":2.0},"constraints":122,"headerText":"Add factory theme","descriptionText":"create a simple low poly box / factory place","assignedToNumber":1,"materialNumber":2}
T{"position":{"x":11.504645347595215,"y":0.25,"z":3.1750621795654299},"rotation":{"x":0.0,"y":0.0,"z":0.0,"w":1.0},"scale":{"x":4.5,"y":0.5,"z":2.0},"constraints":112,"headerText":"Header","descriptionText":"N/A","assignedToNumber":0,"materialNumber":0}
T{"position":{"x":11.402156829833985,"y":0.7436243891716003,"z":2.926393508911133},"rotation":{"x":0.0,"y":0.0,"z":0.0,"w":1.0},"scale":{"x":4.5,"y":0.5,"z":2.0},"constraints":112,"headerText":"Header","descriptionText":"N/A","assignedToNumber":0,"materialNumber":0}
T{"position":{"x":11.550479888916016,"y":2.7374045848846437,"z":1.5551300048828126},"rotation":{"x":0.0,"y":0.0,"z":0.0,"w":1.0},"scale":{"x":4.5,"y":0.5,"z":2.0},"constraints":112,"headerText":"Header","descriptionText":"N/A","assignedToNumber":0,"materialNumber":0}
T{"position":{"x":11.295565605163575,"y":1.2436243295669556,"z":2.620450973510742},"rotation":{"x":0.0,"y":0.0,"z":0.0,"w":1.0},"scale":{"x":4.5,"y":0.5,"z":2.0},"constraints":112,"headerText":"Header","descriptionText":"N/A","assignedToNumber":0,"materialNumber":0}
T{"position":{"x":11.139144897460938,"y":1.7390470504760743,"z":2.3271756172180177},"rotation":{"x":0.0,"y":0.0,"z":0.0,"w":1.0},"scale":{"x":4.5,"y":0.5,"z":2.0},"constraints":112,"headerText":"Header","descriptionText":"N/A","assignedToNumber":0,"materialNumber":0}
T{"position":{"x":9.763336181640625,"y":2.239047050476074,"z":3.3324735164642336},"rotation":{"x":0.0,"y":0.0,"z":0.0,"w":1.0},"scale":{"x":4.5,"y":0.5,"z":2.0},"constraints":112,"headerText":"Header","descriptionText":"N/A","assignedToNumber":0,"materialNumber":0}
T{"position":{"x":5.243348598480225,"y":1.2049999237060547,"z":6.962019920349121},"rotation":{"x":-4.691932176115188e-9,"y":9.215845153676128e-8,"z":1.5170787293072864e-8,"w":1.0},"scale":{"x":1.0,"y":1.0,"z":1.0},"constraints":0,"headerText":"Header","descriptionText":"N/A","assignedToNumber":0,"materialNumber":0}
C{"position":{"x":-44.25,"y":0.75,"z":-10.0},"rotation":{"x":0.0,"y":0.70710688829422,"z":0.0,"w":-0.7071066498756409},"title":""}
C{"position":{"x":-44.25,"y":0.75,"z":5.0},"rotation":{"x":0.0,"y":0.70710688829422,"z":0.0,"w":-0.7071066498756409},"title":""}
C{"position":{"x":-44.25,"y":0.75,"z":20.0},"rotation":{"x":0.0,"y":0.70710688829422,"z":0.0,"w":-0.7071066498756409},"title":""}
C{"position":{"x":-29.25,"y":0.75,"z":20.0},"rotation":{"x":0.0,"y":-2.1922258497397707e-7,"z":0.0,"w":1.0},"title":"sdasdw"}
C{"position":{"x":-14.25,"y":0.75,"z":20.0},"rotation":{"x":0.0,"y":-2.1922258497397707e-7,"z":0.0,"w":1.0},"title":"dsdssw"}
C{"position":{"x":0.75,"y":0.75,"z":20.0},"rotation":{"x":0.0,"y":-2.1922258497397707e-7,"z":0.0,"w":1.0},"title":"to do"}
C{"position":{"x":15.75,"y":0.75,"z":20.0},"rotation":{"x":0.0,"y":-2.1922258497397707e-7,"z":0.0,"w":1.0},"title":""}
C{"position":{"x":30.75,"y":0.75,"z":20.0},"rotation":{"x":0.0,"y":-2.1922258497397707e-7,"z":0.0,"w":1.0},"title":""}
C{"position":{"x":45.75,"y":0.75,"z":20.0},"rotation":{"x":0.0,"y":-2.1922258497397707e-7,"z":0.0,"w":1.0},"title":""}
C{"position":{"x":45.75,"y":0.75,"z":5.0},"rotation":{"x":0.0,"y":-0.7071066498756409,"z":0.0,"w":-0.7071069478988648},"title":""}
C{"position":{"x":45.75,"y":0.75,"z":-10.0},"rotation":{"x":0.0,"y":-0.7071066498756409,"z":0.0,"w":-0.7071069478988648},"title":""}
C{"position":{"x":30.75,"y":0.75,"z":-20.0},"rotation":{"x":0.0,"y":-1.0,"z":0.0,"w":-2.046077440809313e-7},"title":""}
T{"position":{"x":0.75,"y":2.500000476837158,"z":20.0},"rotation":{"x":-0.7071068286895752,"y":-1.5501379380111758e-7,"z":-1.5501379380111758e-7,"w":0.7071068286895752},"scale":{"x":4.5,"y":0.5,"z":2.0},"constraints":122,"headerText":"Add factory theme","descriptionText":"create a simple low poly box / factory place","assignedToNumber":1,"materialNumber":2}
T{"position":{"x":11.504645347595215,"y":0.25,"z":3.1750621795654299},"rotation":{"x":0.0,"y":0.0,"z":0.0,"w":1.0},"scale":{"x":4.5,"y":0.5,"z":2.0},"constraints":112,"headerText":"Header","descriptionText":"N/A","assignedToNumber":0,"materialNumber":0}
T{"position":{"x":11.402156829833985,"y":0.7436243891716003,"z":2.926393508911133},"rotation":{"x":0.0,"y":0.0,"z":0.0,"w":1.0},"scale":{"x":4.5,"y":0.5,"z":2.0},"constraints":112,"headerText":"Header","descriptionText":"N/A","assignedToNumber":0,"materialNumber":0}
T{"position":{"x":11.550479888916016,"y":2.7374045848846437,"z":1.5551300048828126},"rotation":{"x":0.0,"y":0.0,"z":0.0,"w":1.0},"scale":{"x":4.5,"y":0.5,"z":2.0},"constraints":112,"headerText":"Header","descriptionText":"N/A","assignedToNumber":0,"materialNumber":0}
T{"position":{"x":11.295565605163575,"y":1.2436243295669556,"z":2.620450973510742},"rotation":{"x":0.0,"y":0.0,"z":0.0,"w":1.0},"scale":{"x":4.5,"y":0.5,"z":2.0},"constraints":112,"headerText":"Header","descriptionText":"N/A","assignedToNumber":0,"materialNumber":0}
T{"position":{"x":11.139144897460938,"y":1.7390470504760743,"z":2.3271756172180177},"rotation":{"x":0.0,"y":0.0,"z":0.0,"w":1.0},"scale":{"x":4.5,"y":0.5,"z":2.0},"constraints":112,"headerText":"Header","descriptionText":"N/A","assignedToNumber":0,"materialNumber":0}
T{"position":{"x":9.763336181640625,"y":2.239047050476074,"z":3.3324735164642336},"rotation":{"x":0.0,"y":0.0,"z":0.0,"w":1.0},"scale":{"x":4.5,"y":0.5,"z":2.0},"constraints":112,"headerText":"Header","descriptionText":"N/A","assignedToNumber":0,"materialNumber":0}
T{"position":{"x":5.243348598480225,"y":1.2049999237060547,"z":6.962019920349121},"rotation":{"x":-4.691932176115188e-9,"y":9.215845153676128e-8,"z":1.5170787293072864e-8,"w":1.0},"scale":{"x":1.0,"y":1.0,"z":1.0},"constraints":0,"headerText":"Header","descriptionText":"N/A","assignedToNumber":0,"materialNumber":0}
C{"position":{"x":-44.25,"y":0.75,"z":-10.0},"rotation":{"x":0.0,"y":0.70710688829422,"z":0.0,"w":-0.7071066498756409},"title":""}
C{"position":{"x":-44.25,"y":0.75,"z":5.0},"rotation":{"x":0.0,"y":0.70710688829422,"z":0.0,"w":-0.7071066498756409},"title":""}
C{"position":{"x":-44.25,"y":0.75,"z":20.0},"rotation":{"x":0.0,"y":0.70710688829422,"z":0.0,"w":-0.7071066498756409},"title":""}
C{"position":{"x":-29.25,"y":0.75,"z":20.0},"rotation":{"x":0.0,"y":-2.1922258497397707e-7,"z":0.0,"w":1.0},"title":"sdasdw"}
C{"position":{"x":-14.25,"y":0.75,"z":20.0},"rotation":{"x":0.0,"y":-2.1922258497397707e-7,"z":0.0,"w":1.0},"title":"dsdssw"}
C{"position":{"x":0.75,"y":0.75,"z":20.0},"rotation":{"x":0.0,"y":-2.1922258497397707e-7,"z":0.0,"w":1.0},"title":"to do"}
C{"position":{"x":15.75,"y":0.75,"z":20.0},"rotation":{"x":0.0,"y":-2.1922258497397707e-7,"z":0.0,"w":1.0},"title":""}
C{"position":{"x":30.75,"y":0.75,"z":20.0},"rotation":{"x":0.0,"y":-2.1922258497397707e-7,"z":0.0,"w":1.0},"title":""}
C{"position":{"x":45.75,"y":0.75,"z":20.0},"rotation":{"x":0.0,"y":-2.1922258497397707e-7,"z":0.0,"w":1.0},"title":""}
C{"position":{"x":45.75,"y":0.75,"z":5.0},"rotation":{"x":0.0,"y":-0.7071066498756409,"z":0.0,"w":-0.7071069478988648},"title":""}
C{"position":{"x":45.75,"y":0.75,"z":-10.0},"rotation":{"x":0.0,"y":-0.7071066498756409,"z":0.0,"w":-0.7071069478988648},"title":""}
C{"position":{"x":30.75,"y":0.75,"z":-20.0},"rotation":{"x":0.0,"y":-1.0,"z":0.0,"w":-2.046077440809313e-7},"title":""}
T{"position":{"x":0.75,"y":2.500000476837158,"z":20.0},"rotation":{"x":-0.7071068286895752,"y":-1.5501379380111758e-7,"z":-1.5501379380111758e-7,"w":0.7071068286895752},"scale":{"x":4.5,"y":0.5,"z":2.0},"constraints":122,"headerText":"Add factory theme","descriptionText":"create a simple low poly box / factory place","assignedToNumber":1,"materialNumber":2}
T{"position":{"x":11.504645347595215,"y":0.25,"z":3.1750621795654299},"rotation":{"x":0.0,"y":0.0,"z":0.0,"w":1.0},"scale":{"x":4.5,"y":0.5,"z":2.0},"constraints":112,"headerText":"Header","descriptionText":"N/A","assignedToNumber":0,"materialNumber":0}
T{"position":{"x":11.402156829833985,"y":0.7436243891716003,"z":2.926393508911133},"rotation":{"x":0.0,"y":0.0,"z":0.0,"w":1.0},"scale":{"x":4.5,"y":0.5,"z":2.0},"constraints":112,"headerText":"Header","descriptionText":"N/A","assignedToNumber":0,"materialNumber":0}
T{"position":{"x":11.550479888916016,"y":2.7374045848846437,"z":1.5551300048828126},"rotation":{"x":0.0,"y":0.0,"z":0.0,"w":1.0},"scale":{"x":4.5,"y":0.5,"z":2.0},"constraints":112,"headerText":"Header","descriptionText":"N/A","assignedToNumber":0,"materialNumber":0}
T{"position":{"x":11.295565605163575,"y":1.2436243295669556,"z":2.620450973510742},"rotation":{"x":0.0,"y":0.0,"z":0.0,"w":1.0},"scale":{"x":4.5,"y":0.5,"z":2.0},"constraints":112,"headerText":"Header","descriptionText":"N/A","assignedToNumber":0,"materialNumber":0}
T{"position":{"x":11.139144897460938,"y":1.7390470504760743,"z":2.3271756172180177},"rotation":{"x":0.0,"y":0.0,"z":0.0,"w":1.0},"scale":{"x":4.5,"y":0.5,"z":2.0},"constraints":112,"headerText":"Header","descriptionText":"N/A","assignedToNumber":0,"materialNumber":0}
T{"position":{"x":9.763336181640625,"y":2.239047050476074,"z":3.3324735164642336},"rotation":{"x":0.0,"y":0.0,"z":0.0,"w":1.0},"scale":{"x":4.5,"y":0.5,"z":2.0},"constraints":112,"headerText":"Header","descriptionText":"N/A","assignedToNumber":0,"materialNumber":0}
T{"position":{"x":5.243348598480225,"y":1.2049999237060547,"z":6.962019920349121},"rotation":{"x":-4.691932176115188e-9,"y":9.215845153676128e-8,"z":1.5170787293072864e-8,"w":1.0},"scale":{"x":1.0,"y":1.0,"z":1.0},"constraints":0,"headerText":"Header","descriptionText":"N/A","assignedToNumber":0,"materialNumber":0}
C{"position":{"x":-44.25,"y":0.75,"z":-10.0},"rotation":{"x":0.0,"y":0.70710688829422,"z":0.0,"w":-0.7071066498756409},"title":""}
C{"position":{"x":-44.25,"y":0.75,"z":5.0},"rotation":{"x":0.0,"y":0.70710688829422,"z":0.0,"w":-0.7071066498756409},"title":""}
C{"position":{"x":-44.25,"y":0.75,"z":20.0},"rotation":{"x":0.0,"y":0.70710688829422,"z":0.0,"w":-0.7071066498756409},"title":""}
C{"position":{"x":-29.25,"y":0.75,"z":20.0},"rotation":{"x":0.0,"y":-2.1922258497397707e-7,"z":0.0,"w":1.0},"title":"sdasdw"}
C{"position":{"x":-14.25,"y":0.75,"z":20.0},"rotation":{"x":0.0,"y":-2.1922258497397707e-7,"z":0.0,"w":1.0},"title":"dsdssw"}
C{"position":{"x":0.75,"y":0.75,"z":20.0},"rotation":{"x":0.0,"y":-2.1922258497397707e-7,"z":0.0,"w":1.0},"title":"to do"}
C{"position":{"x":15.75,"y":0.75,"z":20.0},"rotation":{"x":0.0,"y":-2.1922258497397707e-7,"z":0.0,"w":1.0},"title":""}
C{"position":{"x":30.75,"y":0.75,"z":20.0},"rotation":{"x":0.0,"y":-2.1922258497397707e-7,"z":0.0,"w":1.0},"title":""}
C{"position":{"x":45.75,"y":0.75,"z":20.0},"rotation":{"x":0.0,"y":-2.1922258497397707e-7,"z":0.0,"w":1.0},"title":""}
C{"position":{"x":45.75,"y":0.75,"z":5.0},"rotation":{"x":0.0,"y":-0.7071066498756409,"z":0.0,"w":-0.7071069478988648},"title":""}
C{"position":{"x":45.75,"y":0.75,"z":-10.0},"rotation":{"x":0.0,"y":-0.7071066498756409,"z":0.0,"w":-0.7071069478988648},"title":""}
C{"position":{"x":30.75,"y":0.75,"z":-20.0},"rotation":{"x":0.0,"y":-1.0,"z":0.0,"w":-2.046077440809313e-7},"title":""}
T{"position":{"x":0.75,"y":2.500000476837158,"z":20.0},"rotation":{"x":-0.7071068286895752,"y":-1.5501379380111758e-7,"z":-1.5501379380111758e-7,"w":0.7071068286895752},"scale":{"x":4.5,"y":0.5,"z":2.0},"constraints":122,"headerText":"Add factory theme","descriptionText":"create a simple low poly box / factory place","assignedToNumber":1,"materialNumber":2}
T{"position":{"x":11.504645347595215,"y":0.25,"z":3.1750621795654299},"rotation":{"x":0.0,"y":0.0,"z":0.0,"w":1.0},"scale":{"x":4.5,"y":0.5,"z":2.0},"constraints":112,"headerText":"Header","descriptionText":"N/A","assignedToNumber":0,"materialNumber":0}
T{"position":{"x":11.402156829833985,"y":0.7436243891716003,"z":2.926393508911133},"rotation":{"x":0.0,"y":0.0,"z":0.0,"w":1.0},"scale":{"x":4.5,"y":0.5,"z":2.0},"constraints":112,"headerText":"Header","descriptionText":"N/A","assignedToNumber":0,"materialNumber":0}
T{"position":{"x":11.550479888916016,"y":2.7374045848846437,"z":1.5551300048828126},"rotation":{"x":0.0,"y":0.0,"z":0.0,"w":1.0},"scale":{"x":4.5,"y":0.5,"z":2.0},"constraints":112,"headerText":"Header","descriptionText":"N/A","assignedToNumber":0,"materialNumber":0}
T{"position":{"x":11.295565605163575,"y":1.2436243295669556,"z":2.620450973510742},"rotation":{"x":0.0,"y":0.0,"z":0.0,"w":1.0},"scale":{"x":4.5,"y":0.5,"z":2.0},"constraints":112,"headerText":"Header","descriptionText":"N/A","assignedToNumber":0,"materialNumber":0}
T{"position":{"x":11.139144897460938,"y":1.7390470504760743,"z":2.3271756172180177},"rotation":{"x":0.0,"y":0.0,"z":0.0,"w":1.0},"scale":{"x":4.5,"y":0.5,"z":2.0},"constraints":112,"headerText":"Header","descriptionText":"N/A","assignedToNumber":0,"materialNumber":0}
T{"position":{"x":9.763336181640625,"y":2.239047050476074,"z":3.3324735164642336},"rotation":{"x":0.0,"y":0.0,"z":0.0,"w":1.0},"scale":{"x":4.5,"y":0.5,"z":2.0},"constraints":112,"headerText":"Header","descriptionText":"N/A","assignedToNumber":0,"materialNumber":0}
T{"position":{"x":5.243348598480225,"y":1.2049999237060547,"z":6.962019920349121},"rotation":{"x":-4.691932176115188e-9,"y":9.215845153676128e-8,"z":1.5170787293072864e-8,"w":1.0},"scale":{"x":1.0,"y":1.0,"z":1.0},"constraints":0,"headerText":"Header","descriptionText":"N/A","assignedToNumber":0,"materialNumber":0}
C{"position":{"x":-44.25,"y":0.75,"z":-10.0},"rotation":{"x":0.0,"y":0.70710688829422,"z":0.0,"w":-0.7071066498756409},"title":""}
C{"position":{"x":-44.25,"y":0.75,"z":5.0},"rotation":{"x":0.0,"y":0.70710688829422,"z":0.0,"w":-0.7071066498756409},"title":""}
C{"position":{"x":-44.25,"y":0.75,"z":20.0},"rotation":{"x":0.0,"y":0.70710688829422,"z":0.0,"w":-0.7071066498756409},"title":""}
C{"position":{"x":-29.25,"y":0.75,"z":20.0},"rotation":{"x":0.0,"y":-2.1922258497397707e-7,"z":0.0,"w":1.0},"title":"sdasdw"}
C{"position":{"x":-14.25,"y":0.75,"z":20.0},"rotation":{"x":0.0,"y":-2.1922258497397707e-7,"z":0.0,"w":1.0},"title":"dsdssw"}
C{"position":{"x":0.75,"y":0.75,"z":20.0},"rotation":{"x":0.0,"y":-2.1922258497397707e-7,"z":0.0,"w":1.0},"title":"to do"}
C{"position":{"x":15.75,"y":0.75,"z":20.0},"rotation":{"x":0.0,"y":-2.1922258497397707e-7,"z":0.0,"w":1.0},"title":""}
C{"position":{"x":30.75,"y":0.75,"z":20.0},"rotation":{"x":0.0,"y":-2.1922258497397707e-7,"z":0.0,"w":1.0},"title":""}
C{"position":{"x":45.75,"y":0.75,"z":20.0},"rotation":{"x":0.0,"y":-2.1922258497397707e-7,"z":0.0,"w":1.0},"title":""}
C{"position":{"x":45.75,"y":0.75,"z":5.0},"rotation":{"x":0.0,"y":-0.7071066498756409,"z":0.0,"w":-0.7071069478988648},"title":""}
C{"position":{"x":45.75,"y":0.75,"z":-10.0},"rotation":{"x":0.0,"y":-0.7071066498756409,"z":0.0,"w":-0.7071069478988648},"title":""}
C{"position":{"x":30.75,"y":0.75,"z":-20.0},"rotation":{"x":0.0,"y":-1.0,"z":0.0,"w":-2.046077440809313e-7},"title":""}
T{"position":{"x":0.75,"y":2.500000476837158,"z":20.0},"rotation":{"x":-0.7071068286895752,"y":-1.5501379380111758e-7,"z":-1.5501379380111758e-7,"w":0.7071068286895752},"scale":{"x":4.5,"y":0.5,"z":2.0},"constraints":122,"headerText":"Add factory theme","descriptionText":"create a simple low poly box / factory place","assignedToNumber":1,"materialNumber":2}
T{"position":{"x":11.504645347595215,"y":0.25,"z":3.1750621795654299},"rotation":{"x":0.0,"y":0.0,"z":0.0,"w":1.0},"scale":{"x":4.5,"y":0.5,"z":2.0},"constraints":112,"headerText":"Header","descriptionText":"N/A","assignedToNumber":0,"materialNumber":0}
T{"position":{"x":11.402156829833985,"y":0.7436243891716003,"z":2.926393508911133},"rotation":{"x":0.0,"y":0.0,"z":0.0,"w":1.0},"scale":{"x":4.5,"y":0.5,"z":2.0},"constraints":112,"headerText":"Header","descriptionText":"N/A","assignedToNumber":0,"materialNumber":0}
T{"position":{"x":11.550479888916016,"y":2.7374045848846437,"z":1.5551300048828126},"rotation":{"x":0.0,"y":0.0,"z":0.0,"w":1.0},"scale":{"x":4.5,"y":0.5,"z":2.0},"constraints":112,"headerText":"Header","descriptionText":"N/A","assignedToNumber":0,"materialNumber":0}
T{"position":{"x":11.295565605163575,"y":1.2436243295669556,"z":2.620450973510742},"rotation":{"x":0.0,"y":0.0,"z":0.0,"w":1.0},"scale":{"x":4.5,"y":0.5,"z":2.0},"constraints":112,"headerText":"Header","descriptionText":"N/A","assignedToNumber":0,"materialNumber":0}
T{"position":{"x":11.139144897460938,"y":1.7390470504760743,"z":2.3271756172180177},"rotation":{"x":0.0,"y":0.0,"z":0.0,"w":1.0},"scale":{"x":4.5,"y":0.5,"z":2.0},"constraints":112,"headerText":"Header","descriptionText":"N/A","assignedToNumber":0,"materialNumber":0}
T{"position":{"x":9.763336181640625,"y":2.239047050476074,"z":3.3324735164642336},"rotation":{"x":0.0,"y":0.0,"z":0.0,"w":1.0},"scale":{"x":4.5,"y":0.5,"z":2.0},"constraints":112,"headerText":"Header","descriptionText":"N/A","assignedToNumber":0,"materialNumber":0}
T{"position":{"x":5.243348598480225,"y":1.2049999237060547,"z":6.962019920349121},"rotation":{"x":-4.691932176115188e-9,"y":9.215845153676128e-8,"z":1.5170787293072864e-8,"w":1.0},"scale":{"x":1.0,"y":1.0,"z":1.0},"constraints":0,"headerText":"Header","descriptionText":"N/A","assignedToNumber":0,"materialNumber":0}
C{"position":{"x":-44.25,"y":0.75,"z":-10.0},"rotation":{"x":0.0,"y":0.70710688829422,"z":0.0,"w":-0.7071066498756409},"title":""}
C{"position":{"x":-44.25,"y":0.75,"z":5.0},"rotation":{"x":0.0,"y":0.70710688829422,"z":0.0,"w":-0.7071066498756409},"title":""}
C{"position":{"x":-44.25,"y":0.75,"z":20.0},"rotation":{"x":0.0,"y":0.70710688829422,"z":0.0,"w":-0.7071066498756409},"title":""}
C{"position":{"x":-29.25,"y":0.75,"z":20.0},"rotation":{"x":0.0,"y":-2.1922258497397707e-7,"z":0.0,"w":1.0},"title":"sdasdw"}
C{"position":{"x":-14.25,"y":0.75,"z":20.0},"rotation":{"x":0.0,"y":-2.1922258497397707e-7,"z":0.0,"w":1.0},"title":"dsdssw"}
C{"position":{"x":0.75,"y":0.75,"z":20.0},"rotation":{"x":0.0,"y":-2.1922258497397707e-7,"z":0.0,"w":1.0},"title":"to do"}
C{"position":{"x":15.75,"y":0.75,"z":20.0},"rotation":{"x":0.0,"y":-2.1922258497397707e-7,"z":0.0,"w":1.0},"title":""}
C{"position":{"x":30.75,"y":0.75,"z":20.0},"rotation":{"x":0.0,"y":-2.1922258497397707e-7,"z":0.0,"w":1.0},"title":""}
C{"position":{"x":45.75,"y":0.75,"z":20.0},"rotation":{"x":0.0,"y":-2.1922258497397707e-7,"z":0.0,"w":1.0},"title":""}
C{"position":{"x":45.75,"y":0.75,"z":5.0},"rotation":{"x":0.0,"y":-0.7071066498756409,"z":0.0,"w":-0.7071069478988648},"title":""}
C{"position":{"x":45.75,"y":0.75,"z":-10.0},"rotation":{"x":0.0,"y":-0.7071066498756409,"z":0.0,"w":-0.7071069478988648},"title":""}
C{"position":{"x":30.75,"y":0.75,"z":-20.0},"rotation":{"x":0.0,"y":-1.0,"z":0.0,"w":-2.046077440809313e-7},"title":""}
T{"position":{"x":0.75,"y":2.500000476837158,"z":20.0},"rotation":{"x":-0.7071068286895752,"y":-1.5501379380111758e-7,"z":-1.5501379380111758e-7,"w":0.7071068286895752},"scale":{"x":4.5,"y":0.5,"z":2.0},"constraints":122,"headerText":"Add factory theme","descriptionText":"create a simple low poly box / factory place","assignedToNumber":1,"materialNumber":2}
T{"position":{"x":11.498452186584473,"y":0.25,"z":3.1762406826019289},"rotation":{"x":0.0,"y":0.0,"z":0.0,"w":1.0},"scale":{"x":4.5,"y":0.5,"z":2.0},"constraints":112,"headerText":"Header","descriptionText":"N/A","assignedToNumber":0,"materialNumber":0}
T{"position":{"x":11.085521697998047,"y":0.7473639249801636,"z":2.986267328262329},"rotation":{"x":0.0,"y":0.0,"z":0.0,"w":1.0},"scale":{"x":4.5,"y":0.5,"z":2.0},"constraints":112,"headerText":"Header","descriptionText":"N/A","assignedToNumber":0,"materialNumber":0}
T{"position":{"x":5.5334649085998539,"y":1.2049999237060547,"z":6.7147040367126469},"rotation":{"x":-5.151538573500147e-8,"y":-1.7839738575275988e-9,"z":5.202995723152526e-8,"w":1.0},"scale":{"x":1.0,"y":1.0,"z":1.0},"constraints":0,"headerText":"Header","descriptionText":"N/A","assignedToNumber":0,"materialNumber":0}
T{"position":{"x":10.962101936340332,"y":1.2431203126907349,"z":2.685185670852661},"rotation":{"x":0.0,"y":0.0,"z":0.0,"w":1.0},"scale":{"x":4.5,"y":0.5,"z":2.0},"constraints":112,"headerText":"Header","descriptionText":"N/A","assignedToNumber":0,"materialNumber":0}
T{"position":{"x":10.537888526916504,"y":1.7431203126907349,"z":2.4446537494659426},"rotation":{"x":0.0,"y":0.0,"z":0.0,"w":1.0},"scale":{"x":4.5,"y":0.5,"z":2.0},"constraints":112,"headerText":"Header","descriptionText":"N/A","assignedToNumber":0,"materialNumber":0}
T{"position":{"x":9.137287139892579,"y":2.2415127754211427,"z":3.45287823677063},"rotation":{"x":0.0,"y":0.0,"z":0.0,"w":1.0},"scale":{"x":4.5,"y":0.5,"z":2.0},"constraints":112,"headerText":"Header","descriptionText":"N/A","assignedToNumber":0,"materialNumber":0}
T{"position":{"x":0.75,"y":4.499845504760742,"z":20.0},"rotation":{"x":-0.7071068286895752,"y":-1.5501379380111758e-7,"z":-1.5501379380111758e-7,"w":0.7071068286895752},"scale":{"x":4.5,"y":0.5,"z":2.0},"constraints":122,"headerText":"create functionality for seeing all users who have joined the server from firebase","descriptionText":"Get active users in the server for assigned to option in ticket","assignedToNumber":0,"materialNumber":0}
C{"position":{"x":-44.25,"y":0.75,"z":-10.0},"rotation":{"x":0.0,"y":0.70710688829422,"z":0.0,"w":-0.7071066498756409},"title":""}
C{"position":{"x":-44.25,"y":0.75,"z":5.0},"rotation":{"x":0.0,"y":0.70710688829422,"z":0.0,"w":-0.7071066498756409},"title":""}
C{"position":{"x":-44.25,"y":0.75,"z":20.0},"rotation":{"x":0.0,"y":0.70710688829422,"z":0.0,"w":-0.7071066498756409},"title":""}
C{"position":{"x":-29.25,"y":0.75,"z":20.0},"rotation":{"x":0.0,"y":-2.1922258497397707e-7,"z":0.0,"w":1.0},"title":"sdasdw"}
C{"position":{"x":-14.25,"y":0.75,"z":20.0},"rotation":{"x":0.0,"y":-2.1922258497397707e-7,"z":0.0,"w":1.0},"title":"dsdssw"}
C{"position":{"x":0.75,"y":0.75,"z":20.0},"rotation":{"x":0.0,"y":-2.1922258497397707e-7,"z":0.0,"w":1.0},"title":"to do"}
C{"position":{"x":15.75,"y":0.75,"z":20.0},"rotation":{"x":0.0,"y":-2.1922258497397707e-7,"z":0.0,"w":1.0},"title":""}
C{"position":{"x":30.75,"y":0.75,"z":20.0},"rotation":{"x":0.0,"y":-2.1922258497397707e-7,"z":0.0,"w":1.0},"title":""}
C{"position":{"x":45.75,"y":0.75,"z":20.0},"rotation":{"x":0.0,"y":-2.1922258497397707e-7,"z":0.0,"w":1.0},"title":""}
C{"position":{"x":45.75,"y":0.75,"z":5.0},"rotation":{"x":0.0,"y":-0.7071066498756409,"z":0.0,"w":-0.7071069478988648},"title":""}
C{"position":{"x":45.75,"y":0.75,"z":-10.0},"rotation":{"x":0.0,"y":-0.7071066498756409,"z":0.0,"w":-0.7071069478988648},"title":""}
C{"position":{"x":30.75,"y":0.75,"z":-20.0},"rotation":{"x":0.0,"y":-1.0,"z":0.0,"w":-2.046077440809313e-7},"title":""}
T{"position":{"x":0.75,"y":2.500000476837158,"z":20.0},"rotation":{"x":-0.7071068286895752,"y":-1.5501379380111758e-7,"z":-1.5501379380111758e-7,"w":0.7071068286895752},"scale":{"x":4.5,"y":0.5,"z":2.0},"constraints":122,"headerText":"Add factory theme","descriptionText":"create a simple low poly box / factory place","assignedToNumber":1,"materialNumber":2}
T{"position":{"x":11.498452186584473,"y":0.25,"z":3.1762406826019289},"rotation":{"x":0.0,"y":0.0,"z":0.0,"w":1.0},"scale":{"x":4.5,"y":0.5,"z":2.0},"constraints":112,"headerText":"Header","descriptionText":"N/A","assignedToNumber":0,"materialNumber":0}
T{"position":{"x":11.085521697998047,"y":0.7473639249801636,"z":2.986267328262329},"rotation":{"x":0.0,"y":0.0,"z":0.0,"w":1.0},"scale":{"x":4.5,"y":0.5,"z":2.0},"constraints":112,"headerText":"Header","descriptionText":"N/A","assignedToNumber":0,"materialNumber":0}
T{"position":{"x":5.5334649085998539,"y":1.2049999237060547,"z":6.7147040367126469},"rotation":{"x":-5.151538573500147e-8,"y":-1.7839738575275988e-9,"z":5.202995723152526e-8,"w":1.0},"scale":{"x":1.0,"y":1.0,"z":1.0},"constraints":0,"headerText":"Header","descriptionText":"N/A","assignedToNumber":0,"materialNumber":0}
T{"position":{"x":10.962101936340332,"y":1.2431203126907349,"z":2.685185670852661},"rotation":{"x":0.0,"y":0.0,"z":0.0,"w":1.0},"scale":{"x":4.5,"y":0.5,"z":2.0},"constraints":112,"headerText":"Header","descriptionText":"N/A","assignedToNumber":0,"materialNumber":0}
T{"position":{"x":10.537888526916504,"y":1.7431203126907349,"z":2.4446537494659426},"rotation":{"x":0.0,"y":0.0,"z":0.0,"w":1.0},"scale":{"x":4.5,"y":0.5,"z":2.0},"constraints":112,"headerText":"Header","descriptionText":"N/A","assignedToNumber":0,"materialNumber":0}
T{"position":{"x":9.137287139892579,"y":2.2415127754211427,"z":3.45287823677063},"rotation":{"x":0.0,"y":0.0,"z":0.0,"w":1.0},"scale":{"x":4.5,"y":0.5,"z":2.0},"constraints":112,"headerText":"Header","descriptionText":"N/A","assignedToNumber":0,"materialNumber":0}
T{"position":{"x":0.75,"y":4.499845504760742,"z":20.0},"rotation":{"x":-0.7071068286895752,"y":-1.5501379380111758e-7,"z":-1.5501379380111758e-7,"w":0.7071068286895752},"scale":{"x":4.5,"y":0.5,"z":2.0},"constraints":122,"headerText":"create functionality for seeing all users who have joined the server from firebase","descriptionText":"Get active users in the server for assigned to option in ticket","assignedToNumber":0,"materialNumber":0}
C{"position":{"x":-44.25,"y":0.75,"z":-10.0},"rotation":{"x":0.0,"y":0.70710688829422,"z":0.0,"w":-0.7071066498756409},"title":""}
C{"position":{"x":-44.25,"y":0.75,"z":5.0},"rotation":{"x":0.0,"y":0.70710688829422,"z":0.0,"w":-0.7071066498756409},"title":""}
C{"position":{"x":-44.25,"y":0.75,"z":20.0},"rotation":{"x":0.0,"y":0.70710688829422,"z":0.0,"w":-0.7071066498756409},"title":""}
C{"position":{"x":-29.25,"y":0.75,"z":20.0},"rotation":{"x":0.0,"y":-2.1922258497397707e-7,"z":0.0,"w":1.0},"title":"sdasdw"}
C{"position":{"x":-14.25,"y":0.75,"z":20.0},"rotation":{"x":0.0,"y":-2.1922258497397707e-7,"z":0.0,"w":1.0},"title":"dsdssw"}
C{"position":{"x":0.75,"y":0.75,"z":20.0},"rotation":{"x":0.0,"y":-2.1922258497397707e-7,"z":0.0,"w":1.0},"title":"to do"}
C{"position":{"x":15.75,"y":0.75,"z":20.0},"rotation":{"x":0.0,"y":-2.1922258497397707e-7,"z":0.0,"w":1.0},"title":""}
C{"position":{"x":30.75,"y":0.75,"z":20.0},"rotation":{"x":0.0,"y":-2.1922258497397707e-7,"z":0.0,"w":1.0},"title":""}
C{"position":{"x":45.75,"y":0.75,"z":20.0},"rotation":{"x":0.0,"y":-2.1922258497397707e-7,"z":0.0,"w":1.0},"title":""}
C{"position":{"x":45.75,"y":0.75,"z":5.0},"rotation":{"x":0.0,"y":-0.7071066498756409,"z":0.0,"w":-0.7071069478988648},"title":""}
C{"position":{"x":45.75,"y":0.75,"z":-10.0},"rotation":{"x":0.0,"y":-0.7071066498756409,"z":0.0,"w":-0.7071069478988648},"title":""}
C{"position":{"x":30.75,"y":0.75,"z":-20.0},"rotation":{"x":0.0,"y":-1.0,"z":0.0,"w":-2.046077440809313e-7},"title":""}
T{"position":{"x":0.75,"y":2.500000476837158,"z":20.0},"rotation":{"x":-0.7071068286895752,"y":-1.5501379380111758e-7,"z":-1.5501379380111758e-7,"w":0.7071068286895752},"scale":{"x":4.5,"y":0.5,"z":2.0},"constraints":122,"headerText":"Add factory theme","descriptionText":"create a simple low poly box / factory place","assignedToNumber":1,"materialNumber":2}
T{"position":{"x":11.498452186584473,"y":0.25,"z":3.1762406826019289},"rotation":{"x":0.0,"y":0.0,"z":0.0,"w":1.0},"scale":{"x":4.5,"y":0.5,"z":2.0},"constraints":112,"headerText":"Header","descriptionText":"N/A","assignedToNumber":0,"materialNumber":0}
T{"position":{"x":11.085521697998047,"y":0.7473639249801636,"z":2.986267328262329},"rotation":{"x":0.0,"y":0.0,"z":0.0,"w":1.0},"scale":{"x":4.5,"y":0.5,"z":2.0},"constraints":112,"headerText":"Header","descriptionText":"N/A","assignedToNumber":0,"materialNumber":0}
T{"position":{"x":5.5334649085998539,"y":1.2049999237060547,"z":6.7147040367126469},"rotation":{"x":-5.151538573500147e-8,"y":-1.7839738575275988e-9,"z":5.202995723152526e-8,"w":1.0},"scale":{"x":1.0,"y":1.0,"z":1.0},"constraints":0,"headerText":"Header","descriptionText":"N/A","assignedToNumber":0,"materialNumber":0}
T{"position":{"x":10.962101936340332,"y":1.2431203126907349,"z":2.685185670852661},"rotation":{"x":0.0,"y":0.0,"z":0.0,"w":1.0},"scale":{"x":4.5,"y":0.5,"z":2.0},"constraints":112,"headerText":"Header","descriptionText":"N/A","assignedToNumber":0,"materialNumber":0}
T{"position":{"x":10.537888526916504,"y":1.7431203126907349,"z":2.4446537494659426},"rotation":{"x":0.0,"y":0.0,"z":0.0,"w":1.0},"scale":{"x":4.5,"y":0.5,"z":2.0},"constraints":112,"headerText":"Header","descriptionText":"N/A","assignedToNumber":0,"materialNumber":0}
T{"position":{"x":9.137287139892579,"y":2.2415127754211427,"z":3.45287823677063},"rotation":{"x":0.0,"y":0.0,"z":0.0,"w":1.0},"scale":{"x":4.5,"y":0.5,"z":2.0},"constraints":112,"headerText":"Header","descriptionText":"N/A","assignedToNumber":0,"materialNumber":0}
T{"position":{"x":0.75,"y":4.499845504760742,"z":20.0},"rotation":{"x":-0.7071068286895752,"y":-1.5501379380111758e-7,"z":-1.5501379380111758e-7,"w":0.7071068286895752},"scale":{"x":4.5,"y":0.5,"z":2.0},"constraints":122,"headerText":"create functionality for seeing all users who have joined the server from firebase","descriptionText":"Get active users in the server for assigned to option in ticket","assignedToNumber":0,"materialNumber":0}
C{"position":{"x":-44.25,"y":0.75,"z":-10.0},"rotation":{"x":0.0,"y":0.70710688829422,"z":0.0,"w":-0.7071066498756409},"title":""}
C{"position":{"x":-44.25,"y":0.75,"z":5.0},"rotation":{"x":0.0,"y":0.70710688829422,"z":0.0,"w":-0.7071066498756409},"title":""}
C{"position":{"x":-44.25,"y":0.75,"z":20.0},"rotation":{"x":0.0,"y":0.70710688829422,"z":0.0,"w":-0.7071066498756409},"title":""}
C{"position":{"x":-29.25,"y":0.75,"z":20.0},"rotation":{"x":0.0,"y":-2.1922258497397707e-7,"z":0.0,"w":1.0},"title":"sdasdw"}
C{"position":{"x":-14.25,"y":0.75,"z":20.0},"rotation":{"x":0.0,"y":-2.1922258497397707e-7,"z":0.0,"w":1.0},"title":"dsdssw"}
C{"position":{"x":0.75,"y":0.75,"z":20.0},"rotation":{"x":0.0,"y":-2.1922258497397707e-7,"z":0.0,"w":1.0},"title":"to do"}
C{"position":{"x":15.75,"y":0.75,"z":20.0},"rotation":{"x":0.0,"y":-2.1922258497397707e-7,"z":0.0,"w":1.0},"title":""}
C{"position":{"x":30.75,"y":0.75,"z":20.0},"rotation":{"x":0.0,"y":-2.1922258497397707e-7,"z":0.0,"w":1.0},"title":""}
C{"position":{"x":45.75,"y":0.75,"z":20.0},"rotation":{"x":0.0,"y":-2.1922258497397707e-7,"z":0.0,"w":1.0},"title":""}
C{"position":{"x":45.75,"y":0.75,"z":5.0},"rotation":{"x":0.0,"y":-0.7071066498756409,"z":0.0,"w":-0.7071069478988648},"title":""}
C{"position":{"x":45.75,"y":0.75,"z":-10.0},"rotation":{"x":0.0,"y":-0.7071066498756409,"z":0.0,"w":-0.7071069478988648},"title":""}
C{"position":{"x":30.75,"y":0.75,"z":-20.0},"rotation":{"x":0.0,"y":-1.0,"z":0.0,"w":-2.046077440809313e-7},"title":""}
T{"position":{"x":0.75,"y":2.500000476837158,"z":20.0},"rotation":{"x":-0.7071068286895752,"y":-1.5501379380111758e-7,"z":-1.5501379380111758e-7,"w":0.7071068286895752},"scale":{"x":4.5,"y":0.5,"z":2.0},"constraints":122,"headerText":"Add factory theme","descriptionText":"create a simple low poly box / factory place","assignedToNumber":1,"materialNumber":2}
T{"position":{"x":11.498452186584473,"y":0.25,"z":3.1762406826019289},"rotation":{"x":0.0,"y":0.0,"z":0.0,"w":1.0},"scale":{"x":4.5,"y":0.5,"z":2.0},"constraints":112,"headerText":"Header","descriptionText":"N/A","assignedToNumber":0,"materialNumber":0}
T{"position":{"x":11.085521697998047,"y":0.7473639249801636,"z":2.986267328262329},"rotation":{"x":0.0,"y":0.0,"z":0.0,"w":1.0},"scale":{"x":4.5,"y":0.5,"z":2.0},"constraints":112,"headerText":"Header","descriptionText":"N/A","assignedToNumber":0,"materialNumber":0}
T{"position":{"x":5.5334649085998539,"y":1.2049999237060547,"z":6.7147040367126469},"rotation":{"x":-5.151538573500147e-8,"y":-1.7839738575275988e-9,"z":5.202995723152526e-8,"w":1.0},"scale":{"x":1.0,"y":1.0,"z":1.0},"constraints":0,"headerText":"Header","descriptionText":"N/A","assignedToNumber":0,"materialNumber":0}
T{"position":{"x":10.962101936340332,"y":1.2431203126907349,"z":2.685185670852661},"rotation":{"x":0.0,"y":0.0,"z":0.0,"w":1.0},"scale":{"x":4.5,"y":0.5,"z":2.0},"constraints":112,"headerText":"Header","descriptionText":"N/A","assignedToNumber":0,"materialNumber":0}
T{"position":{"x":10.537888526916504,"y":1.7431203126907349,"z":2.4446537494659426},"rotation":{"x":0.0,"y":0.0,"z":0.0,"w":1.0},"scale":{"x":4.5,"y":0.5,"z":2.0},"constraints":112,"headerText":"Header","descriptionText":"N/A","assignedToNumber":0,"materialNumber":0}
T{"position":{"x":9.137287139892579,"y":2.2415127754211427,"z":3.45287823677063},"rotation":{"x":0.0,"y":0.0,"z":0.0,"w":1.0},"scale":{"x":4.5,"y":0.5,"z":2.0},"constraints":112,"headerText":"Header","descriptionText":"N/A","assignedToNumber":0,"materialNumber":0}
T{"position":{"x":0.75,"y":4.499845504760742,"z":20.0},"rotation":{"x":-0.7071068286895752,"y":-1.5501379380111758e-7,"z":-1.5501379380111758e-7,"w":0.7071068286895752},"scale":{"x":4.5,"y":0.5,"z":2.0},"constraints":122,"headerText":"create functionality for seeing all users who have joined the server from firebase","descriptionText":"Get active users in the server for assigned to option in ticket","assignedToNumber":0,"materialNumber":0}
C{"position":{"x":-44.25,"y":0.75,"z":-10.0},"rotation":{"x":0.0,"y":0.70710688829422,"z":0.0,"w":-0.7071066498756409},"title":""}
C{"position":{"x":-44.25,"y":0.75,"z":5.0},"rotation":{"x":0.0,"y":0.70710688829422,"z":0.0,"w":-0.7071066498756409},"title":""}
C{"position":{"x":-44.25,"y":0.75,"z":20.0},"rotation":{"x":0.0,"y":0.70710688829422,"z":0.0,"w":-0.7071066498756409},"title":""}
C{"position":{"x":-29.25,"y":0.75,"z":20.0},"rotation":{"x":0.0,"y":-2.1922258497397707e-7,"z":0.0,"w":1.0},"title":"sdasdw"}
C{"position":{"x":-14.25,"y":0.75,"z":20.0},"rotation":{"x":0.0,"y":-2.1922258497397707e-7,"z":0.0,"w":1.0},"title":"dsdssw"}
C{"position":{"x":0.75,"y":0.75,"z":20.0},"rotation":{"x":0.0,"y":-2.1922258497397707e-7,"z":0.0,"w":1.0},"title":"to do"}
C{"position":{"x":15.75,"y":0.75,"z":20.0},"rotation":{"x":0.0,"y":-2.1922258497397707e-7,"z":0.0,"w":1.0},"title":""}
C{"position":{"x":30.75,"y":0.75,"z":20.0},"rotation":{"x":0.0,"y":-2.1922258497397707e-7,"z":0.0,"w":1.0},"title":""}
C{"position":{"x":45.75,"y":0.75,"z":20.0},"rotation":{"x":0.0,"y":-2.1922258497397707e-7,"z":0.0,"w":1.0},"title":""}
C{"position":{"x":45.75,"y":0.75,"z":5.0},"rotation":{"x":0.0,"y":-0.7071066498756409,"z":0.0,"w":-0.7071069478988648},"title":""}
C{"position":{"x":45.75,"y":0.75,"z":-10.0},"rotation":{"x":0.0,"y":-0.7071066498756409,"z":0.0,"w":-0.7071069478988648},"title":""}
C{"position":{"x":30.75,"y":0.75,"z":-20.0},"rotation":{"x":0.0,"y":-1.0,"z":0.0,"w":-2.046077440809313e-7},"title":""}
T{"position":{"x":0.75,"y":2.500000476837158,"z":20.0},"rotation":{"x":-0.7071068286895752,"y":-1.5501379380111758e-7,"z":-1.5501379380111758e-7,"w":0.7071068286895752},"scale":{"x":4.5,"y":0.5,"z":2.0},"constraints":122,"headerText":"Add factory theme","descriptionText":"create a simple low poly box / factory place","assignedToNumber":1,"materialNumber":2}
T{"position":{"x":11.498452186584473,"y":0.25,"z":3.1762406826019289},"rotation":{"x":0.0,"y":0.0,"z":0.0,"w":1.0},"scale":{"x":4.5,"y":0.5,"z":2.0},"constraints":112,"headerText":"Header","descriptionText":"N/A","assignedToNumber":0,"materialNumber":0}
T{"position":{"x":11.085521697998047,"y":0.7473639249801636,"z":2.986267328262329},"rotation":{"x":0.0,"y":0.0,"z":0.0,"w":1.0},"scale":{"x":4.5,"y":0.5,"z":2.0},"constraints":112,"headerText":"Header","descriptionText":"N/A","assignedToNumber":0,"materialNumber":0}
T{"position":{"x":5.5334649085998539,"y":1.2049999237060547,"z":6.7147040367126469},"rotation":{"x":-5.151538573500147e-8,"y":-1.7839738575275988e-9,"z":5.202995723152526e-8,"w":1.0},"scale":{"x":1.0,"y":1.0,"z":1.0},"constraints":0,"headerText":"Header","descriptionText":"N/A","assignedToNumber":0,"materialNumber":0}
T{"position":{"x":10.962101936340332,"y":1.2431203126907349,"z":2.685185670852661},"rotation":{"x":0.0,"y":0.0,"z":0.0,"w":1.0},"scale":{"x":4.5,"y":0.5,"z":2.0},"constraints":112,"headerText":"Header","descriptionText":"N/A","assignedToNumber":0,"materialNumber":0}
T{"position":{"x":10.537888526916504,"y":1.7431203126907349,"z":2.4446537494659426},"rotation":{"x":0.0,"y":0.0,"z":0.0,"w":1.0},"scale":{"x":4.5,"y":0.5,"z":2.0},"constraints":112,"headerText":"Header","descriptionText":"N/A","assignedToNumber":0,"materialNumber":0}
T{"position":{"x":9.137287139892579,"y":2.2415127754211427,"z":3.45287823677063},"rotation":{"x":0.0,"y":0.0,"z":0.0,"w":1.0},"scale":{"x":4.5,"y":0.5,"z":2.0},"constraints":112,"headerText":"Header","descriptionText":"N/A","assignedToNumber":0,"materialNumber":0}
T{"position":{"x":0.75,"y":4.499845504760742,"z":20.0},"rotation":{"x":-0.7071068286895752,"y":-1.5501379380111758e-7,"z":-1.5501379380111758e-7,"w":0.7071068286895752},"scale":{"x":4.5,"y":0.5,"z":2.0},"constraints":122,"headerText":"create functionality for seeing all users who have joined the server from firebase","descriptionText":"Get active users in the server for assigned to option in ticket","assignedToNumber":0,"materialNumber":0}
C{"position":{"x":-44.25,"y":0.75,"z":-10.0},"rotation":{"x":0.0,"y":0.70710688829422,"z":0.0,"w":-0.7071066498756409},"title":""}
C{"position":{"x":-44.25,"y":0.75,"z":5.0},"rotation":{"x":0.0,"y":0.70710688829422,"z":0.0,"w":-0.7071066498756409},"title":""}
C{"position":{"x":-44.25,"y":0.75,"z":20.0},"rotation":{"x":0.0,"y":0.70710688829422,"z":0.0,"w":-0.7071066498756409},"title":""}
C{"position":{"x":-29.25,"y":0.75,"z":20.0},"rotation":{"x":0.0,"y":-2.1922258497397707e-7,"z":0.0,"w":1.0},"title":"sdasdw"}
C{"position":{"x":-14.25,"y":0.75,"z":20.0},"rotation":{"x":0.0,"y":-2.1922258497397707e-7,"z":0.0,"w":1.0},"title":"dsdssw"}
C{"position":{"x":0.75,"y":0.75,"z":20.0},"rotation":{"x":0.0,"y":-2.1922258497397707e-7,"z":0.0,"w":1.0},"title":"to do"}
C{"position":{"x":15.75,"y":0.75,"z":20.0},"rotation":{"x":0.0,"y":-2.1922258497397707e-7,"z":0.0,"w":1.0},"title":""}
C{"position":{"x":30.75,"y":0.75,"z":20.0},"rotation":{"x":0.0,"y":-2.1922258497397707e-7,"z":0.0,"w":1.0},"title":""}
C{"position":{"x":45.75,"y":0.75,"z":20.0},"rotation":{"x":0.0,"y":-2.1922258497397707e-7,"z":0.0,"w":1.0},"title":""}
C{"position":{"x":45.75,"y":0.75,"z":5.0},"rotation":{"x":0.0,"y":-0.7071066498756409,"z":0.0,"w":-0.7071069478988648},"title":""}
C{"position":{"x":45.75,"y":0.75,"z":-10.0},"rotation":{"x":0.0,"y":-0.7071066498756409,"z":0.0,"w":-0.7071069478988648},"title":""}
C{"position":{"x":30.75,"y":0.75,"z":-20.0},"rotation":{"x":0.0,"y":-1.0,"z":0.0,"w":-2.046077440809313e-7},"title":""}
T{"position":{"x":0.75,"y":2.500000476837158,"z":20.0},"rotation":{"x":-0.7071068286895752,"y":-1.5501379380111758e-7,"z":-1.5501379380111758e-7,"w":0.7071068286895752},"scale":{"x":4.5,"y":0.5,"z":2.0},"constraints":122,"headerText":"Add factory theme","descriptionText":"create a simple low poly box / factory place","assignedToNumber":1,"materialNumber":2}
T{"position":{"x":11.498452186584473,"y":0.25,"z":3.1762406826019289},"rotation":{"x":0.0,"y":0.0,"z":0.0,"w":1.0},"scale":{"x":4.5,"y":0.5,"z":2.0},"constraints":112,"headerText":"Header","descriptionText":"N/A","assignedToNumber":0,"materialNumber":0}
T{"position":{"x":11.085521697998047,"y":0.7473639249801636,"z":2.986267328262329},"rotation":{"x":0.0,"y":0.0,"z":0.0,"w":1.0},"scale":{"x":4.5,"y":0.5,"z":2.0},"constraints":112,"headerText":"Header","descriptionText":"N/A","assignedToNumber":0,"materialNumber":0}
T{"position":{"x":5.5334649085998539,"y":1.2049999237060547,"z":6.7147040367126469},"rotation":{"x":-5.151538573500147e-8,"y":-1.7839738575275988e-9,"z":5.202995723152526e-8,"w":1.0},"scale":{"x":1.0,"y":1.0,"z":1.0},"constraints":0,"headerText":"Header","descriptionText":"N/A","assignedToNumber":0,"materialNumber":0}
T{"position":{"x":10.962101936340332,"y":1.2431203126907349,"z":2.685185670852661},"rotation":{"x":0.0,"y":0.0,"z":0.0,"w":1.0},"scale":{"x":4.5,"y":0.5,"z":2.0},"constraints":112,"headerText":"Header","descriptionText":"N/A","assignedToNumber":0,"materialNumber":0}
T{"position":{"x":10.537888526916504,"y":1.7431203126907349,"z":2.4446537494659426},"rotation":{"x":0.0,"y":0.0,"z":0.0,"w":1.0},"scale":{"x":4.5,"y":0.5,"z":2.0},"constraints":112,"headerText":"Header","descriptionText":"N/A","assignedToNumber":0,"materialNumber":0}
T{"position":{"x":9.137287139892579,"y":2.2415127754211427,"z":3.45287823677063},"rotation":{"x":0.0,"y":0.0,"z":0.0,"w":1.0},"scale":{"x":4.5,"y":0.5,"z":2.0},"constraints":112,"headerText":"Header","descriptionText":"N/A","assignedToNumber":0,"materialNumber":0}
T{"position":{"x":0.75,"y":4.499845504760742,"z":20.0},"rotation":{"x":-0.7071068286895752,"y":-1.5501379380111758e-7,"z":-1.5501379380111758e-7,"w":0.7071068286895752},"scale":{"x":4.5,"y":0.5,"z":2.0},"constraints":122,"headerText":"create functionality for seeing all users who have joined the server from firebase","descriptionText":"Get active users in the server for assigned to option in ticket","assignedToNumber":0,"materialNumber":0}
C{"position":{"x":-44.25,"y":0.75,"z":-10.0},"rotation":{"x":0.0,"y":0.70710688829422,"z":0.0,"w":-0.7071066498756409},"title":""}
C{"position":{"x":-44.25,"y":0.75,"z":5.0},"rotation":{"x":0.0,"y":0.70710688829422,"z":0.0,"w":-0.7071066498756409},"title":""}
C{"position":{"x":-44.25,"y":0.75,"z":20.0},"rotation":{"x":0.0,"y":0.70710688829422,"z":0.0,"w":-0.7071066498756409},"title":""}
C{"position":{"x":-29.25,"y":0.75,"z":20.0},"rotation":{"x":0.0,"y":-2.1922258497397707e-7,"z":0.0,"w":1.0},"title":"sdasdw"}
C{"position":{"x":-14.25,"y":0.75,"z":20.0},"rotation":{"x":0.0,"y":-2.1922258497397707e-7,"z":0.0,"w":1.0},"title":"dsdssw"}
C{"position":{"x":0.75,"y":0.75,"z":20.0},"rotation":{"x":0.0,"y":-2.1922258497397707e-7,"z":0.0,"w":1.0},"title":"to do"}
C{"position":{"x":15.75,"y":0.75,"z":20.0},"rotation":{"x":0.0,"y":-2.1922258497397707e-7,"z":0.0,"w":1.0},"title":""}
C{"position":{"x":30.75,"y":0.75,"z":20.0},"rotation":{"x":0.0,"y":-2.1922258497397707e-7,"z":0.0,"w":1.0},"title":""}
C{"position":{"x":45.75,"y":0.75,"z":20.0},"rotation":{"x":0.0,"y":-2.1922258497397707e-7,"z":0.0,"w":1.0},"title":""}
C{"position":{"x":45.75,"y":0.75,"z":5.0},"rotation":{"x":0.0,"y":-0.7071066498756409,"z":0.0,"w":-0.7071069478988648},"title":""}
C{"position":{"x":45.75,"y":0.75,"z":-10.0},"rotation":{"x":0.0,"y":-0.7071066498756409,"z":0.0,"w":-0.7071069478988648},"title":""}
C{"position":{"x":30.75,"y":0.75,"z":-20.0},"rotation":{"x":0.0,"y":-1.0,"z":0.0,"w":-2.046077440809313e-7},"title":""}
T{"position":{"x":0.75,"y":2.500000476837158,"z":20.0},"rotation":{"x":-0.7071068286895752,"y":-1.5501379380111758e-7,"z":-1.5501379380111758e-7,"w":0.7071068286895752},"scale":{"x":4.5,"y":0.5,"z":2.0},"constraints":122,"headerText":"Add factory theme","descriptionText":"create a simple low poly box / factory place","assignedToNumber":1,"materialNumber":2}
T{"position":{"x":11.498452186584473,"y":0.25,"z":3.1762406826019289},"rotation":{"x":0.0,"y":0.0,"z":0.0,"w":1.0},"scale":{"x":4.5,"y":0.5,"z":2.0},"constraints":112,"headerText":"Header","descriptionText":"N/A","assignedToNumber":0,"materialNumber":0}
T{"position":{"x":11.085521697998047,"y":0.7473639249801636,"z":2.986267328262329},"rotation":{"x":0.0,"y":0.0,"z":0.0,"w":1.0},"scale":{"x":4.5,"y":0.5,"z":2.0},"constraints":112,"headerText":"Header","descriptionText":"N/A","assignedToNumber":0,"materialNumber":0}
T{"position":{"x":5.5334649085998539,"y":1.2049999237060547,"z":6.7147040367126469},"rotation":{"x":-5.151538573500147e-8,"y":-1.7839738575275988e-9,"z":5.202995723152526e-8,"w":1.0},"scale":{"x":1.0,"y":1.0,"z":1.0},"constraints":0,"headerText":"animations","descriptionText":"placing a column animation and sound, trash can animation and sound, ","assignedToNumber":0,"materialNumber":0}
T{"position":{"x":10.962101936340332,"y":1.2431203126907349,"z":2.685185670852661},"rotation":{"x":0.0,"y":0.0,"z":0.0,"w":1.0},"scale":{"x":4.5,"y":0.5,"z":2.0},"constraints":112,"headerText":"Header","descriptionText":"N/A","assignedToNumber":0,"materialNumber":0}
T{"position":{"x":10.537888526916504,"y":1.7431203126907349,"z":2.4446537494659426},"rotation":{"x":0.0,"y":0.0,"z":0.0,"w":1.0},"scale":{"x":4.5,"y":0.5,"z":2.0},"constraints":112,"headerText":"Header","descriptionText":"N/A","assignedToNumber":0,"materialNumber":0}
T{"position":{"x":9.137287139892579,"y":2.2415127754211427,"z":3.45287823677063},"rotation":{"x":0.0,"y":0.0,"z":0.0,"w":1.0},"scale":{"x":4.5,"y":0.5,"z":2.0},"constraints":112,"headerText":"Header","descriptionText":"N/A","assignedToNumber":0,"materialNumber":0}
T{"position":{"x":0.75,"y":4.499845504760742,"z":20.0},"rotation":{"x":-0.7071068286895752,"y":-1.5501379380111758e-7,"z":-1.5501379380111758e-7,"w":0.7071068286895752},"scale":{"x":4.5,"y":0.5,"z":2.0},"constraints":122,"headerText":"create functionality for seeing all users who have joined the server from firebase","descriptionText":"Get active users in the server for assigned to option in ticket","assignedToNumber":0,"materialNumber":0}
C{"position":{"x":-44.25,"y":0.75,"z":-10.0},"rotation":{"x":0.0,"y":0.70710688829422,"z":0.0,"w":-0.7071066498756409},"title":""}
C{"position":{"x":-44.25,"y":0.75,"z":5.0},"rotation":{"x":0.0,"y":0.70710688829422,"z":0.0,"w":-0.7071066498756409},"title":""}
C{"position":{"x":-44.25,"y":0.75,"z":20.0},"rotation":{"x":0.0,"y":0.70710688829422,"z":0.0,"w":-0.7071066498756409},"title":""}
C{"position":{"x":-29.25,"y":0.75,"z":20.0},"rotation":{"x":0.0,"y":-2.1922258497397707e-7,"z":0.0,"w":1.0},"title":"sdasdw"}
C{"position":{"x":-14.25,"y":0.75,"z":20.0},"rotation":{"x":0.0,"y":-2.1922258497397707e-7,"z":0.0,"w":1.0},"title":"dsdssw"}
C{"position":{"x":0.75,"y":0.75,"z":20.0},"rotation":{"x":0.0,"y":-2.1922258497397707e-7,"z":0.0,"w":1.0},"title":"to do"}
C{"position":{"x":15.75,"y":0.75,"z":20.0},"rotation":{"x":0.0,"y":-2.1922258497397707e-7,"z":0.0,"w":1.0},"title":""}
C{"position":{"x":30.75,"y":0.75,"z":20.0},"rotation":{"x":0.0,"y":-2.1922258497397707e-7,"z":0.0,"w":1.0},"title":""}
C{"position":{"x":45.75,"y":0.75,"z":20.0},"rotation":{"x":0.0,"y":-2.1922258497397707e-7,"z":0.0,"w":1.0},"title":""}
C{"position":{"x":45.75,"y":0.75,"z":5.0},"rotation":{"x":0.0,"y":-0.7071066498756409,"z":0.0,"w":-0.7071069478988648},"title":""}
C{"position":{"x":45.75,"y":0.75,"z":-10.0},"rotation":{"x":0.0,"y":-0.7071066498756409,"z":0.0,"w":-0.7071069478988648},"title":""}
C{"position":{"x":30.75,"y":0.75,"z":-20.0},"rotation":{"x":0.0,"y":-1.0,"z":0.0,"w":-2.046077440809313e-7},"title":""}
T{"position":{"x":0.75,"y":2.500000476837158,"z":20.0},"rotation":{"x":-0.7071068286895752,"y":-1.5501379380111758e-7,"z":-1.5501379380111758e-7,"w":0.7071068286895752},"scale":{"x":4.5,"y":0.5,"z":2.0},"constraints":122,"headerText":"Add factory theme","descriptionText":"create a simple low poly box / factory place","assignedToNumber":1,"materialNumber":2}
T{"position":{"x":11.498452186584473,"y":0.25,"z":3.1762406826019289},"rotation":{"x":0.0,"y":0.0,"z":0.0,"w":1.0},"scale":{"x":4.5,"y":0.5,"z":2.0},"constraints":112,"headerText":"Header","descriptionText":"N/A","assignedToNumber":0,"materialNumber":0}
T{"position":{"x":11.085521697998047,"y":0.7473639249801636,"z":2.986267328262329},"rotation":{"x":0.0,"y":0.0,"z":0.0,"w":1.0},"scale":{"x":4.5,"y":0.5,"z":2.0},"constraints":112,"headerText":"Header","descriptionText":"N/A","assignedToNumber":0,"materialNumber":0}
T{"position":{"x":5.5334649085998539,"y":1.2049999237060547,"z":6.7147040367126469},"rotation":{"x":-5.151538573500147e-8,"y":-1.7839738575275988e-9,"z":5.202995723152526e-8,"w":1.0},"scale":{"x":1.0,"y":1.0,"z":1.0},"constraints":0,"headerText":"animations","descriptionText":"placing a column animation and sound, trash can animation and sound, ","assignedToNumber":0,"materialNumber":0}
T{"position":{"x":10.962101936340332,"y":1.2431203126907349,"z":2.685185670852661},"rotation":{"x":0.0,"y":0.0,"z":0.0,"w":1.0},"scale":{"x":4.5,"y":0.5,"z":2.0},"constraints":112,"headerText":"Header","descriptionText":"N/A","assignedToNumber":0,"materialNumber":0}
T{"position":{"x":10.537888526916504,"y":1.7431203126907349,"z":2.4446537494659426},"rotation":{"x":0.0,"y":0.0,"z":0.0,"w":1.0},"scale":{"x":4.5,"y":0.5,"z":2.0},"constraints":112,"headerText":"Header","descriptionText":"N/A","assignedToNumber":0,"materialNumber":0}
T{"position":{"x":9.137287139892579,"y":2.2415127754211427,"z":3.45287823677063},"rotation":{"x":0.0,"y":0.0,"z":0.0,"w":1.0},"scale":{"x":4.5,"y":0.5,"z":2.0},"constraints":112,"headerText":"Header","descriptionText":"N/A","assignedToNumber":0,"materialNumber":0}
T{"position":{"x":0.75,"y":4.499845504760742,"z":20.0},"rotation":{"x":-0.7071068286895752,"y":-1.5501379380111758e-7,"z":-1.5501379380111758e-7,"w":0.7071068286895752},"scale":{"x":4.5,"y":0.5,"z":2.0},"constraints":122,"headerText":"create functionality for seeing all users who have joined the server from firebase","descriptionText":"Get active users in the server for assigned to option in ticket","assignedToNumber":0,"materialNumber":0}
C{"position":{"x":-44.25,"y":0.75,"z":-10.0},"rotation":{"x":0.0,"y":0.70710688829422,"z":0.0,"w":-0.7071066498756409},"title":""}
C{"position":{"x":-44.25,"y":0.75,"z":5.0},"rotation":{"x":0.0,"y":0.70710688829422,"z":0.0,"w":-0.7071066498756409},"title":""}
C{"position":{"x":-44.25,"y":0.75,"z":20.0},"rotation":{"x":0.0,"y":0.70710688829422,"z":0.0,"w":-0.7071066498756409},"title":""}
C{"position":{"x":-29.25,"y":0.75,"z":20.0},"rotation":{"x":0.0,"y":-2.1922258497397707e-7,"z":0.0,"w":1.0},"title":"sdasdw"}
C{"position":{"x":-14.25,"y":0.75,"z":20.0},"rotation":{"x":0.0,"y":-2.1922258497397707e-7,"z":0.0,"w":1.0},"title":"dsdssw"}
C{"position":{"x":0.75,"y":0.75,"z":20.0},"rotation":{"x":0.0,"y":-2.1922258497397707e-7,"z":0.0,"w":1.0},"title":"to do"}
C{"position":{"x":15.75,"y":0.75,"z":20.0},"rotation":{"x":0.0,"y":-2.1922258497397707e-7,"z":0.0,"w":1.0},"title":""}
C{"position":{"x":30.75,"y":0.75,"z":20.0},"rotation":{"x":0.0,"y":-2.1922258497397707e-7,"z":0.0,"w":1.0},"title":""}
C{"position":{"x":45.75,"y":0.75,"z":20.0},"rotation":{"x":0.0,"y":-2.1922258497397707e-7,"z":0.0,"w":1.0},"title":""}
C{"position":{"x":45.75,"y":0.75,"z":5.0},"rotation":{"x":0.0,"y":-0.7071066498756409,"z":0.0,"w":-0.7071069478988648},"title":""}
C{"position":{"x":45.75,"y":0.75,"z":-10.0},"rotation":{"x":0.0,"y":-0.7071066498756409,"z":0.0,"w":-0.7071069478988648},"title":""}
C{"position":{"x":30.75,"y":0.75,"z":-20.0},"rotation":{"x":0.0,"y":-1.0,"z":0.0,"w":-2.046077440809313e-7},"title":""}
T{"position":{"x":0.75,"y":2.500000476837158,"z":20.0},"rotation":{"x":-0.7071068286895752,"y":-1.5501379380111758e-7,"z":-1.5501379380111758e-7,"w":0.7071068286895752},"scale":{"x":4.5,"y":0.5,"z":2.0},"constraints":122,"headerText":"Add factory theme","descriptionText":"create a simple low poly box / factory place","assignedToNumber":1,"materialNumber":2}
T{"position":{"x":11.498452186584473,"y":0.25,"z":3.1762406826019289},"rotation":{"x":0.0,"y":0.0,"z":0.0,"w":1.0},"scale":{"x":4.5,"y":0.5,"z":2.0},"constraints":112,"headerText":"Header","descriptionText":"N/A","assignedToNumber":0,"materialNumber":0}
T{"position":{"x":11.085521697998047,"y":0.7473639249801636,"z":2.986267328262329},"rotation":{"x":0.0,"y":0.0,"z":0.0,"w":1.0},"scale":{"x":4.5,"y":0.5,"z":2.0},"constraints":112,"headerText":"Header","descriptionText":"N/A","assignedToNumber":0,"materialNumber":0}
T{"position":{"x":5.5334649085998539,"y":1.2049999237060547,"z":6.7147040367126469},"rotation":{"x":-5.151538573500147e-8,"y":-1.7839738575275988e-9,"z":5.202995723152526e-8,"w":1.0},"scale":{"x":1.0,"y":1.0,"z":1.0},"constraints":0,"headerText":"animations","descriptionText":"placing a column animation, ticket edit animation, ","assignedToNumber":0,"materialNumber":0}
T{"position":{"x":10.962101936340332,"y":1.2431203126907349,"z":2.685185670852661},"rotation":{"x":0.0,"y":0.0,"z":0.0,"w":1.0},"scale":{"x":4.5,"y":0.5,"z":2.0},"constraints":112,"headerText":"Header","descriptionText":"N/A","assignedToNumber":0,"materialNumber":0}
T{"position":{"x":10.537888526916504,"y":1.7431203126907349,"z":2.4446537494659426},"rotation":{"x":0.0,"y":0.0,"z":0.0,"w":1.0},"scale":{"x":4.5,"y":0.5,"z":2.0},"constraints":112,"headerText":"Header","descriptionText":"N/A","assignedToNumber":0,"materialNumber":0}
T{"position":{"x":9.137287139892579,"y":2.2415127754211427,"z":3.45287823677063},"rotation":{"x":0.0,"y":0.0,"z":0.0,"w":1.0},"scale":{"x":4.5,"y":0.5,"z":2.0},"constraints":112,"headerText":"Header","descriptionText":"N/A","assignedToNumber":0,"materialNumber":0}
T{"position":{"x":0.75,"y":4.499845504760742,"z":20.0},"rotation":{"x":-0.7071068286895752,"y":-1.5501379380111758e-7,"z":-1.5501379380111758e-7,"w":0.7071068286895752},"scale":{"x":4.5,"y":0.5,"z":2.0},"constraints":122,"headerText":"create functionality for seeing all users who have joined the server from firebase","descriptionText":"Get active users in the server for assigned to option in ticket","assignedToNumber":0,"materialNumber":0}
C{"position":{"x":-44.25,"y":0.75,"z":-10.0},"rotation":{"x":0.0,"y":0.70710688829422,"z":0.0,"w":-0.7071066498756409},"title":""}
C{"position":{"x":-44.25,"y":0.75,"z":5.0},"rotation":{"x":0.0,"y":0.70710688829422,"z":0.0,"w":-0.7071066498756409},"title":""}
C{"position":{"x":-44.25,"y":0.75,"z":20.0},"rotation":{"x":0.0,"y":0.70710688829422,"z":0.0,"w":-0.7071066498756409},"title":""}
C{"position":{"x":-29.25,"y":0.75,"z":20.0},"rotation":{"x":0.0,"y":-2.1922258497397707e-7,"z":0.0,"w":1.0},"title":"sdasdw"}
C{"position":{"x":-14.25,"y":0.75,"z":20.0},"rotation":{"x":0.0,"y":-2.1922258497397707e-7,"z":0.0,"w":1.0},"title":"dsdssw"}
C{"position":{"x":0.75,"y":0.75,"z":20.0},"rotation":{"x":0.0,"y":-2.1922258497397707e-7,"z":0.0,"w":1.0},"title":"to do"}
C{"position":{"x":15.75,"y":0.75,"z":20.0},"rotation":{"x":0.0,"y":-2.1922258497397707e-7,"z":0.0,"w":1.0},"title":""}
C{"position":{"x":30.75,"y":0.75,"z":20.0},"rotation":{"x":0.0,"y":-2.1922258497397707e-7,"z":0.0,"w":1.0},"title":""}
C{"position":{"x":45.75,"y":0.75,"z":20.0},"rotation":{"x":0.0,"y":-2.1922258497397707e-7,"z":0.0,"w":1.0},"title":""}
C{"position":{"x":45.75,"y":0.75,"z":5.0},"rotation":{"x":0.0,"y":-0.7071066498756409,"z":0.0,"w":-0.7071069478988648},"title":""}
C{"position":{"x":45.75,"y":0.75,"z":-10.0},"rotation":{"x":0.0,"y":-0.7071066498756409,"z":0.0,"w":-0.7071069478988648},"title":""}
C{"position":{"x":30.75,"y":0.75,"z":-20.0},"rotation":{"x":0.0,"y":-1.0,"z":0.0,"w":-2.046077440809313e-7},"title":""}
T{"position":{"x":0.75,"y":2.500000476837158,"z":20.0},"rotation":{"x":-0.7071068286895752,"y":-1.5501379380111758e-7,"z":-1.5501379380111758e-7,"w":0.7071068286895752},"scale":{"x":4.5,"y":0.5,"z":2.0},"constraints":122,"headerText":"Add factory theme","descriptionText":"create a simple low poly box / factory place","assignedToNumber":1,"materialNumber":2}
T{"position":{"x":11.498452186584473,"y":0.25,"z":3.1762406826019289},"rotation":{"x":0.0,"y":0.0,"z":0.0,"w":1.0},"scale":{"x":4.5,"y":0.5,"z":2.0},"constraints":112,"headerText":"Header","descriptionText":"N/A","assignedToNumber":0,"materialNumber":0}
T{"position":{"x":11.085521697998047,"y":0.7473639249801636,"z":2.986267328262329},"rotation":{"x":0.0,"y":0.0,"z":0.0,"w":1.0},"scale":{"x":4.5,"y":0.5,"z":2.0},"constraints":112,"headerText":"Header","descriptionText":"N/A","assignedToNumber":0,"materialNumber":0}
T{"position":{"x":5.5334649085998539,"y":1.2049999237060547,"z":6.7147040367126469},"rotation":{"x":-5.151538573500147e-8,"y":-1.7839738575275988e-9,"z":5.202995723152526e-8,"w":1.0},"scale":{"x":1.0,"y":1.0,"z":1.0},"constraints":0,"headerText":"animations","descriptionText":"placing a column animation, ticket edit animation, ","assignedToNumber":0,"materialNumber":0}
T{"position":{"x":10.962101936340332,"y":1.2431203126907349,"z":2.685185670852661},"rotation":{"x":0.0,"y":0.0,"z":0.0,"w":1.0},"scale":{"x":4.5,"y":0.5,"z":2.0},"constraints":112,"headerText":"Header","descriptionText":"N/A","assignedToNumber":0,"materialNumber":0}
T{"position":{"x":10.537888526916504,"y":1.7431203126907349,"z":2.4446537494659426},"rotation":{"x":0.0,"y":0.0,"z":0.0,"w":1.0},"scale":{"x":4.5,"y":0.5,"z":2.0},"constraints":112,"headerText":"Header","descriptionText":"N/A","assignedToNumber":0,"materialNumber":0}
T{"position":{"x":9.137287139892579,"y":2.2415127754211427,"z":3.45287823677063},"rotation":{"x":0.0,"y":0.0,"z":0.0,"w":1.0},"scale":{"x":4.5,"y":0.5,"z":2.0},"constraints":112,"headerText":"Header","descriptionText":"N/A","assignedToNumber":0,"materialNumber":0}
T{"position":{"x":0.75,"y":4.499845504760742,"z":20.0},"rotation":{"x":-0.7071068286895752,"y":-1.5501379380111758e-7,"z":-1.5501379380111758e-7,"w":0.7071068286895752},"scale":{"x":4.5,"y":0.5,"z":2.0},"constraints":122,"headerText":"create functionality for seeing all users who have joined the server from firebase","descriptionText":"Get active users in the server for assigned to option in ticket","assignedToNumber":0,"materialNumber":0}
C{"position":{"x":-44.25,"y":0.75,"z":-10.0},"rotation":{"x":0.0,"y":0.70710688829422,"z":0.0,"w":-0.7071066498756409},"title":""}
C{"position":{"x":-44.25,"y":0.75,"z":5.0},"rotation":{"x":0.0,"y":0.70710688829422,"z":0.0,"w":-0.7071066498756409},"title":""}
C{"position":{"x":-44.25,"y":0.75,"z":20.0},"rotation":{"x":0.0,"y":0.70710688829422,"z":0.0,"w":-0.7071066498756409},"title":""}
C{"position":{"x":-29.25,"y":0.75,"z":20.0},"rotation":{"x":0.0,"y":-2.1922258497397707e-7,"z":0.0,"w":1.0},"title":"sdasdw"}
C{"position":{"x":-14.25,"y":0.75,"z":20.0},"rotation":{"x":0.0,"y":-2.1922258497397707e-7,"z":0.0,"w":1.0},"title":"dsdssw"}
C{"position":{"x":0.75,"y":0.75,"z":20.0},"rotation":{"x":0.0,"y":-2.1922258497397707e-7,"z":0.0,"w":1.0},"title":"to do"}
C{"position":{"x":15.75,"y":0.75,"z":20.0},"rotation":{"x":0.0,"y":-2.1922258497397707e-7,"z":0.0,"w":1.0},"title":""}
C{"position":{"x":30.75,"y":0.75,"z":20.0},"rotation":{"x":0.0,"y":-2.1922258497397707e-7,"z":0.0,"w":1.0},"title":""}
C{"position":{"x":45.75,"y":0.75,"z":20.0},"rotation":{"x":0.0,"y":-2.1922258497397707e-7,"z":0.0,"w":1.0},"title":""}
C{"position":{"x":45.75,"y":0.75,"z":5.0},"rotation":{"x":0.0,"y":-0.7071066498756409,"z":0.0,"w":-0.7071069478988648},"title":""}
C{"position":{"x":45.75,"y":0.75,"z":-10.0},"rotation":{"x":0.0,"y":-0.7071066498756409,"z":0.0,"w":-0.7071069478988648},"title":""}
C{"position":{"x":30.75,"y":0.75,"z":-20.0},"rotation":{"x":0.0,"y":-1.0,"z":0.0,"w":-2.046077440809313e-7},"title":""}
T{"position":{"x":0.75,"y":2.500000476837158,"z":20.0},"rotation":{"x":-0.7071068286895752,"y":-1.5501379380111758e-7,"z":-1.5501379380111758e-7,"w":0.7071068286895752},"scale":{"x":4.5,"y":0.5,"z":2.0},"constraints":122,"headerText":"Add factory theme","descriptionText":"create a simple low poly box / factory place","assignedToNumber":1,"materialNumber":2}
T{"position":{"x":11.498452186584473,"y":0.25,"z":3.1762406826019289},"rotation":{"x":0.0,"y":0.0,"z":0.0,"w":1.0},"scale":{"x":4.5,"y":0.5,"z":2.0},"constraints":112,"headerText":"Header","descriptionText":"N/A","assignedToNumber":0,"materialNumber":0}
T{"position":{"x":11.085521697998047,"y":0.7473639249801636,"z":2.986267328262329},"rotation":{"x":0.0,"y":0.0,"z":0.0,"w":1.0},"scale":{"x":4.5,"y":0.5,"z":2.0},"constraints":112,"headerText":"Header","descriptionText":"N/A","assignedToNumber":0,"materialNumber":0}
T{"position":{"x":5.5334649085998539,"y":1.2049999237060547,"z":6.7147040367126469},"rotation":{"x":-5.151538573500147e-8,"y":-1.7839738575275988e-9,"z":5.202995723152526e-8,"w":1.0},"scale":{"x":1.0,"y":1.0,"z":1.0},"constraints":0,"headerText":"animations","descriptionText":"placing a column animation, ticket edit animation, ","assignedToNumber":0,"materialNumber":0}
T{"position":{"x":10.962101936340332,"y":1.2431203126907349,"z":2.685185670852661},"rotation":{"x":0.0,"y":0.0,"z":0.0,"w":1.0},"scale":{"x":4.5,"y":0.5,"z":2.0},"constraints":112,"headerText":"Header","descriptionText":"N/A","assignedToNumber":0,"materialNumber":0}
T{"position":{"x":10.537888526916504,"y":1.7431203126907349,"z":2.4446537494659426},"rotation":{"x":0.0,"y":0.0,"z":0.0,"w":1.0},"scale":{"x":4.5,"y":0.5,"z":2.0},"constraints":112,"headerText":"Header","descriptionText":"N/A","assignedToNumber":0,"materialNumber":0}
T{"position":{"x":9.137287139892579,"y":2.2415127754211427,"z":3.45287823677063},"rotation":{"x":0.0,"y":0.0,"z":0.0,"w":1.0},"scale":{"x":4.5,"y":0.5,"z":2.0},"constraints":112,"headerText":"Header","descriptionText":"N/A","assignedToNumber":0,"materialNumber":0}
T{"position":{"x":0.75,"y":4.499845504760742,"z":20.0},"rotation":{"x":-0.7071068286895752,"y":-1.5501379380111758e-7,"z":-1.5501379380111758e-7,"w":0.7071068286895752},"scale":{"x":4.5,"y":0.5,"z":2.0},"constraints":122,"headerText":"create functionality for seeing all users who have joined the server from firebase","descriptionText":"Get active users in the server for assigned to option in ticket","assignedToNumber":0,"materialNumber":0}
C{"position":{"x":-44.25,"y":0.75,"z":-10.0},"rotation":{"x":0.0,"y":0.70710688829422,"z":0.0,"w":-0.7071066498756409},"title":""}
C{"position":{"x":-44.25,"y":0.75,"z":5.0},"rotation":{"x":0.0,"y":0.70710688829422,"z":0.0,"w":-0.7071066498756409},"title":""}
C{"position":{"x":-44.25,"y":0.75,"z":20.0},"rotation":{"x":0.0,"y":0.70710688829422,"z":0.0,"w":-0.7071066498756409},"title":""}
C{"position":{"x":-29.25,"y":0.75,"z":20.0},"rotation":{"x":0.0,"y":-2.1922258497397707e-7,"z":0.0,"w":1.0},"title":"sdasdw"}
C{"position":{"x":-14.25,"y":0.75,"z":20.0},"rotation":{"x":0.0,"y":-2.1922258497397707e-7,"z":0.0,"w":1.0},"title":"dsdssw"}
C{"position":{"x":0.75,"y":0.75,"z":20.0},"rotation":{"x":0.0,"y":-2.1922258497397707e-7,"z":0.0,"w":1.0},"title":"to do"}
C{"position":{"x":15.75,"y":0.75,"z":20.0},"rotation":{"x":0.0,"y":-2.1922258497397707e-7,"z":0.0,"w":1.0},"title":""}
C{"position":{"x":30.75,"y":0.75,"z":20.0},"rotation":{"x":0.0,"y":-2.1922258497397707e-7,"z":0.0,"w":1.0},"title":""}
C{"position":{"x":45.75,"y":0.75,"z":20.0},"rotation":{"x":0.0,"y":-2.1922258497397707e-7,"z":0.0,"w":1.0},"title":""}
C{"position":{"x":45.75,"y":0.75,"z":5.0},"rotation":{"x":0.0,"y":-0.7071066498756409,"z":0.0,"w":-0.7071069478988648},"title":""}
C{"position":{"x":45.75,"y":0.75,"z":-10.0},"rotation":{"x":0.0,"y":-0.7071066498756409,"z":0.0,"w":-0.7071069478988648},"title":""}
C{"position":{"x":30.75,"y":0.75,"z":-20.0},"rotation":{"x":0.0,"y":-1.0,"z":0.0,"w":-2.046077440809313e-7},"title":""}
T{"position":{"x":0.75,"y":2.500000476837158,"z":20.0},"rotation":{"x":-0.7071068286895752,"y":-1.5501379380111758e-7,"z":-1.5501379380111758e-7,"w":0.7071068286895752},"scale":{"x":4.5,"y":0.5,"z":2.0},"constraints":122,"headerText":"Add factory theme","descriptionText":"create a simple low poly box / factory place","assignedToNumber":1,"materialNumber":2}
T{"position":{"x":11.498452186584473,"y":0.25,"z":3.1762406826019289},"rotation":{"x":0.0,"y":0.0,"z":0.0,"w":1.0},"scale":{"x":4.5,"y":0.5,"z":2.0},"constraints":112,"headerText":"Header","descriptionText":"N/A","assignedToNumber":0,"materialNumber":0}
T{"position":{"x":11.085521697998047,"y":0.7473639249801636,"z":2.986267328262329},"rotation":{"x":0.0,"y":0.0,"z":0.0,"w":1.0},"scale":{"x":4.5,"y":0.5,"z":2.0},"constraints":112,"headerText":"Header","descriptionText":"N/A","assignedToNumber":0,"materialNumber":0}
T{"position":{"x":5.5334649085998539,"y":1.2049999237060547,"z":6.7147040367126469},"rotation":{"x":-5.151538573500147e-8,"y":-1.7839738575275988e-9,"z":5.202995723152526e-8,"w":1.0},"scale":{"x":1.0,"y":1.0,"z":1.0},"constraints":0,"headerText":"animations","descriptionText":"placing a column animation, ticket edit animation, ","assignedToNumber":0,"materialNumber":0}
T{"position":{"x":10.962101936340332,"y":1.2431203126907349,"z":2.685185670852661},"rotation":{"x":0.0,"y":0.0,"z":0.0,"w":1.0},"scale":{"x":4.5,"y":0.5,"z":2.0},"constraints":112,"headerText":"Header","descriptionText":"N/A","assignedToNumber":0,"materialNumber":0}
T{"position":{"x":10.537888526916504,"y":1.7431203126907349,"z":2.4446537494659426},"rotation":{"x":0.0,"y":0.0,"z":0.0,"w":1.0},"scale":{"x":4.5,"y":0.5,"z":2.0},"constraints":112,"headerText":"Header","descriptionText":"N/A","assignedToNumber":0,"materialNumber":0}
T{"position":{"x":9.137287139892579,"y":2.2415127754211427,"z":3.45287823677063},"rotation":{"x":0.0,"y":0.0,"z":0.0,"w":1.0},"scale":{"x":4.5,"y":0.5,"z":2.0},"constraints":112,"headerText":"Header","descriptionText":"N/A","assignedToNumber":0,"materialNumber":0}
T{"position":{"x":0.75,"y":4.499845504760742,"z":20.0},"rotation":{"x":-0.7071068286895752,"y":-1.5501379380111758e-7,"z":-1.5501379380111758e-7,"w":0.7071068286895752},"scale":{"x":4.5,"y":0.5,"z":2.0},"constraints":122,"headerText":"create functionality for seeing all users who have joined the server from firebase","descriptionText":"Get active users in the server for assigned to option in ticket","assignedToNumber":0,"materialNumber":0}
C{"position":{"x":-44.25,"y":0.75,"z":-10.0},"rotation":{"x":0.0,"y":0.70710688829422,"z":0.0,"w":-0.7071066498756409},"title":""}
C{"position":{"x":-44.25,"y":0.75,"z":5.0},"rotation":{"x":0.0,"y":0.70710688829422,"z":0.0,"w":-0.7071066498756409},"title":""}
C{"position":{"x":-44.25,"y":0.75,"z":20.0},"rotation":{"x":0.0,"y":0.70710688829422,"z":0.0,"w":-0.7071066498756409},"title":""}
C{"position":{"x":-29.25,"y":0.75,"z":20.0},"rotation":{"x":0.0,"y":-2.1922258497397707e-7,"z":0.0,"w":1.0},"title":"sdasdw"}
C{"position":{"x":-14.25,"y":0.75,"z":20.0},"rotation":{"x":0.0,"y":-2.1922258497397707e-7,"z":0.0,"w":1.0},"title":"dsdssw"}
C{"position":{"x":0.75,"y":0.75,"z":20.0},"rotation":{"x":0.0,"y":-2.1922258497397707e-7,"z":0.0,"w":1.0},"title":"to do"}
C{"position":{"x":15.75,"y":0.75,"z":20.0},"rotation":{"x":0.0,"y":-2.1922258497397707e-7,"z":0.0,"w":1.0},"title":""}
C{"position":{"x":30.75,"y":0.75,"z":20.0},"rotation":{"x":0.0,"y":-2.1922258497397707e-7,"z":0.0,"w":1.0},"title":""}
C{"position":{"x":45.75,"y":0.75,"z":20.0},"rotation":{"x":0.0,"y":-2.1922258497397707e-7,"z":0.0,"w":1.0},"title":""}
C{"position":{"x":45.75,"y":0.75,"z":5.0},"rotation":{"x":0.0,"y":-0.7071066498756409,"z":0.0,"w":-0.7071069478988648},"title":""}
C{"position":{"x":45.75,"y":0.75,"z":-10.0},"rotation":{"x":0.0,"y":-0.7071066498756409,"z":0.0,"w":-0.7071069478988648},"title":""}
C{"position":{"x":30.75,"y":0.75,"z":-20.0},"rotation":{"x":0.0,"y":-1.0,"z":0.0,"w":-2.046077440809313e-7},"title":""}
T{"position":{"x":0.75,"y":2.500000476837158,"z":20.0},"rotation":{"x":-0.7071068286895752,"y":-1.5501379380111758e-7,"z":-1.5501379380111758e-7,"w":0.7071068286895752},"scale":{"x":4.5,"y":0.5,"z":2.0},"constraints":122,"headerText":"Add factory theme","descriptionText":"create a simple low poly box / factory place","assignedToNumber":1,"materialNumber":2}
T{"position":{"x":11.498452186584473,"y":0.25,"z":3.1762406826019289},"rotation":{"x":0.0,"y":0.0,"z":0.0,"w":1.0},"scale":{"x":4.5,"y":0.5,"z":2.0},"constraints":112,"headerText":"Header","descriptionText":"N/A","assignedToNumber":0,"materialNumber":0}
T{"position":{"x":11.085521697998047,"y":0.7473639249801636,"z":2.986267328262329},"rotation":{"x":0.0,"y":0.0,"z":0.0,"w":1.0},"scale":{"x":4.5,"y":0.5,"z":2.0},"constraints":112,"headerText":"Header","descriptionText":"N/A","assignedToNumber":0,"materialNumber":0}
T{"position":{"x":5.5334649085998539,"y":1.2049999237060547,"z":6.7147040367126469},"rotation":{"x":-5.151538573500147e-8,"y":-1.7839738575275988e-9,"z":5.202995723152526e-8,"w":1.0},"scale":{"x":1.0,"y":1.0,"z":1.0},"constraints":0,"headerText":"animations","descriptionText":"placing a column animation, ticket edit animation, ","assignedToNumber":0,"materialNumber":0}
T{"position":{"x":10.962101936340332,"y":1.2431203126907349,"z":2.685185670852661},"rotation":{"x":0.0,"y":0.0,"z":0.0,"w":1.0},"scale":{"x":4.5,"y":0.5,"z":2.0},"constraints":112,"headerText":"Header","descriptionText":"N/A","assignedToNumber":0,"materialNumber":0}
T{"position":{"x":10.537888526916504,"y":1.7431203126907349,"z":2.4446537494659426},"rotation":{"x":0.0,"y":0.0,"z":0.0,"w":1.0},"scale":{"x":4.5,"y":0.5,"z":2.0},"constraints":112,"headerText":"Header","descriptionText":"N/A","assignedToNumber":0,"materialNumber":0}
T{"position":{"x":9.137287139892579,"y":2.2415127754211427,"z":3.45287823677063},"rotation":{"x":0.0,"y":0.0,"z":0.0,"w":1.0},"scale":{"x":4.5,"y":0.5,"z":2.0},"constraints":112,"headerText":"Header","descriptionText":"N/A","assignedToNumber":0,"materialNumber":0}
T{"position":{"x":0.75,"y":4.499845504760742,"z":20.0},"rotation":{"x":-0.7071068286895752,"y":-1.5501379380111758e-7,"z":-1.5501379380111758e-7,"w":0.7071068286895752},"scale":{"x":4.5,"y":0.5,"z":2.0},"constraints":122,"headerText":"create functionality for seeing all users who have joined the server from firebase","descriptionText":"Get active users in the server for assigned to option in ticket","assignedToNumber":0,"materialNumber":0}
C{"position":{"x":-44.25,"y":0.75,"z":-10.0},"rotation":{"x":0.0,"y":0.70710688829422,"z":0.0,"w":-0.7071066498756409},"title":""}
C{"position":{"x":-44.25,"y":0.75,"z":5.0},"rotation":{"x":0.0,"y":0.70710688829422,"z":0.0,"w":-0.7071066498756409},"title":""}
C{"position":{"x":-44.25,"y":0.75,"z":20.0},"rotation":{"x":0.0,"y":0.70710688829422,"z":0.0,"w":-0.7071066498756409},"title":""}
C{"position":{"x":-29.25,"y":0.75,"z":20.0},"rotation":{"x":0.0,"y":-2.1922258497397707e-7,"z":0.0,"w":1.0},"title":"sdasdw"}
C{"position":{"x":-14.25,"y":0.75,"z":20.0},"rotation":{"x":0.0,"y":-2.1922258497397707e-7,"z":0.0,"w":1.0},"title":"dsdssw"}
C{"position":{"x":0.75,"y":0.75,"z":20.0},"rotation":{"x":0.0,"y":-2.1922258497397707e-7,"z":0.0,"w":1.0},"title":"to do"}
C{"position":{"x":15.75,"y":0.75,"z":20.0},"rotation":{"x":0.0,"y":-2.1922258497397707e-7,"z":0.0,"w":1.0},"title":""}
C{"position":{"x":30.75,"y":0.75,"z":20.0},"rotation":{"x":0.0,"y":-2.1922258497397707e-7,"z":0.0,"w":1.0},"title":""}
C{"position":{"x":45.75,"y":0.75,"z":20.0},"rotation":{"x":0.0,"y":-2.1922258497397707e-7,"z":0.0,"w":1.0},"title":""}
C{"position":{"x":45.75,"y":0.75,"z":5.0},"rotation":{"x":0.0,"y":-0.7071066498756409,"z":0.0,"w":-0.7071069478988648},"title":""}
C{"position":{"x":45.75,"y":0.75,"z":-10.0},"rotation":{"x":0.0,"y":-0.7071066498756409,"z":0.0,"w":-0.7071069478988648},"title":""}
C{"position":{"x":30.75,"y":0.75,"z":-20.0},"rotation":{"x":0.0,"y":-1.0,"z":0.0,"w":-2.046077440809313e-7},"title":""}
T{"position":{"x":0.75,"y":2.500000476837158,"z":20.0},"rotation":{"x":-0.7071068286895752,"y":-1.5501379380111758e-7,"z":-1.5501379380111758e-7,"w":0.7071068286895752},"scale":{"x":4.5,"y":0.5,"z":2.0},"constraints":122,"headerText":"Add factory theme","descriptionText":"create a simple low poly box / factory place","assignedToNumber":1,"materialNumber":2}
T{"position":{"x":11.497323989868164,"y":0.25,"z":3.1764423847198488},"rotation":{"x":0.0,"y":0.0,"z":0.0,"w":1.0},"scale":{"x":4.5,"y":0.5,"z":2.0},"constraints":112,"headerText":"Header","descriptionText":"N/A","assignedToNumber":0,"materialNumber":0}
T{"position":{"x":11.05496597290039,"y":0.746907114982605,"z":2.991699457168579},"rotation":{"x":0.0,"y":0.0,"z":0.0,"w":1.0},"scale":{"x":4.5,"y":0.5,"z":2.0},"constraints":112,"headerText":"Header","descriptionText":"N/A","assignedToNumber":0,"materialNumber":0}
T{"position":{"x":1.0287504196166993,"y":6.499455451965332,"z":20.0},"rotation":{"x":-0.7071068286895752,"y":-1.5501379380111758e-7,"z":-1.5501379380111758e-7,"w":0.7071068286895752},"scale":{"x":4.5,"y":0.5,"z":2.0},"constraints":122,"headerText":"animations","descriptionText":"placing a column animation, ticket edit animation, air-tube animations, trash can animation, delete column animation","assignedToNumber":0,"materialNumber":0}
T{"position":{"x":10.88038444519043,"y":1.246907114982605,"z":2.70019268989563},"rotation":{"x":0.0,"y":0.0,"z":0.0,"w":1.0},"scale":{"x":4.5,"y":0.5,"z":2.0},"constraints":112,"headerText":"Header","descriptionText":"N/A","assignedToNumber":0,"materialNumber":0}
T{"position":{"x":10.45378589630127,"y":1.7456262111663819,"z":2.4600131511688234},"rotation":{"x":0.0,"y":0.0,"z":0.0,"w":1.0},"scale":{"x":4.5,"y":0.5,"z":2.0},"constraints":112,"headerText":"Header","descriptionText":"N/A","assignedToNumber":0,"materialNumber":0}
T{"position":{"x":6.02967643737793,"y":1.2049999237060547,"z":6.794780731201172},"rotation":{"x":-3.1875860173613549e-8,"y":-3.962818340141894e-8,"z":1.962695783674917e-8,"w":1.0},"scale":{"x":1.0,"y":1.0,"z":1.0},"constraints":0,"headerText":"Header","descriptionText":"N/A","assignedToNumber":0,"materialNumber":0}
T{"position":{"x":0.75,"y":4.49972677230835,"z":20.0},"rotation":{"x":-0.7071068286895752,"y":-1.5501379380111758e-7,"z":-1.5501379380111758e-7,"w":0.7071068286895752},"scale":{"x":4.5,"y":0.5,"z":2.0},"constraints":122,"headerText":"create functionality for seeing all users who have joined the server from firebase","descriptionText":"Get active users in the server for assigned to option in ticket","assignedToNumber":0,"materialNumber":0}
C{"position":{"x":-44.25,"y":0.75,"z":-10.0},"rotation":{"x":0.0,"y":0.70710688829422,"z":0.0,"w":-0.7071066498756409},"title":""}
C{"position":{"x":-44.25,"y":0.75,"z":5.0},"rotation":{"x":0.0,"y":0.70710688829422,"z":0.0,"w":-0.7071066498756409},"title":""}
C{"position":{"x":-44.25,"y":0.75,"z":20.0},"rotation":{"x":0.0,"y":0.70710688829422,"z":0.0,"w":-0.7071066498756409},"title":""}
C{"position":{"x":-29.25,"y":0.75,"z":20.0},"rotation":{"x":0.0,"y":-2.1922258497397707e-7,"z":0.0,"w":1.0},"title":"sdasdw"}
C{"position":{"x":-14.25,"y":0.75,"z":20.0},"rotation":{"x":0.0,"y":-2.1922258497397707e-7,"z":0.0,"w":1.0},"title":"dsdssw"}
C{"position":{"x":0.75,"y":0.75,"z":20.0},"rotation":{"x":0.0,"y":-2.1922258497397707e-7,"z":0.0,"w":1.0},"title":"to do"}
C{"position":{"x":15.75,"y":0.75,"z":20.0},"rotation":{"x":0.0,"y":-2.1922258497397707e-7,"z":0.0,"w":1.0},"title":""}
C{"position":{"x":30.75,"y":0.75,"z":20.0},"rotation":{"x":0.0,"y":-2.1922258497397707e-7,"z":0.0,"w":1.0},"title":""}
C{"position":{"x":45.75,"y":0.75,"z":20.0},"rotation":{"x":0.0,"y":-2.1922258497397707e-7,"z":0.0,"w":1.0},"title":""}
C{"position":{"x":45.75,"y":0.75,"z":5.0},"rotation":{"x":0.0,"y":-0.7071066498756409,"z":0.0,"w":-0.7071069478988648},"title":""}
C{"position":{"x":45.75,"y":0.75,"z":-10.0},"rotation":{"x":0.0,"y":-0.7071066498756409,"z":0.0,"w":-0.7071069478988648},"title":""}
C{"position":{"x":30.75,"y":0.75,"z":-20.0},"rotation":{"x":0.0,"y":-1.0,"z":0.0,"w":-2.046077440809313e-7},"title":""}
T{"position":{"x":0.75,"y":2.500000476837158,"z":20.0},"rotation":{"x":-0.7071068286895752,"y":-1.5501379380111758e-7,"z":-1.5501379380111758e-7,"w":0.7071068286895752},"scale":{"x":4.5,"y":0.5,"z":2.0},"constraints":122,"headerText":"Add factory theme","descriptionText":"create a simple low poly box / factory place","assignedToNumber":1,"materialNumber":2}
T{"position":{"x":11.497323989868164,"y":0.25,"z":3.1764423847198488},"rotation":{"x":0.0,"y":0.0,"z":0.0,"w":1.0},"scale":{"x":4.5,"y":0.5,"z":2.0},"constraints":112,"headerText":"Header","descriptionText":"N/A","assignedToNumber":0,"materialNumber":0}
T{"position":{"x":11.05496597290039,"y":0.746907114982605,"z":2.991699457168579},"rotation":{"x":0.0,"y":0.0,"z":0.0,"w":1.0},"scale":{"x":4.5,"y":0.5,"z":2.0},"constraints":112,"headerText":"Header","descriptionText":"N/A","assignedToNumber":0,"materialNumber":0}
T{"position":{"x":1.0287504196166993,"y":6.499455451965332,"z":20.0},"rotation":{"x":-0.7071068286895752,"y":-1.5501379380111758e-7,"z":-1.5501379380111758e-7,"w":0.7071068286895752},"scale":{"x":4.5,"y":0.5,"z":2.0},"constraints":122,"headerText":"animations","descriptionText":"placing a column animation, ticket edit animation, air-tube animations, trash can animation, delete column animation","assignedToNumber":0,"materialNumber":0}
T{"position":{"x":10.88038444519043,"y":1.246907114982605,"z":2.70019268989563},"rotation":{"x":0.0,"y":0.0,"z":0.0,"w":1.0},"scale":{"x":4.5,"y":0.5,"z":2.0},"constraints":112,"headerText":"Header","descriptionText":"N/A","assignedToNumber":0,"materialNumber":0}
T{"position":{"x":10.45378589630127,"y":1.7456262111663819,"z":2.4600131511688234},"rotation":{"x":0.0,"y":0.0,"z":0.0,"w":1.0},"scale":{"x":4.5,"y":0.5,"z":2.0},"constraints":112,"headerText":"Header","descriptionText":"N/A","assignedToNumber":0,"materialNumber":0}
T{"position":{"x":6.02967643737793,"y":1.2049999237060547,"z":6.794780731201172},"rotation":{"x":-3.1875860173613549e-8,"y":-3.962818340141894e-8,"z":1.962695783674917e-8,"w":1.0},"scale":{"x":1.0,"y":1.0,"z":1.0},"constraints":0,"headerText":"Header","descriptionText":"N/A","assignedToNumber":0,"materialNumber":0}
T{"position":{"x":0.75,"y":4.49972677230835,"z":20.0},"rotation":{"x":-0.7071068286895752,"y":-1.5501379380111758e-7,"z":-1.5501379380111758e-7,"w":0.7071068286895752},"scale":{"x":4.5,"y":0.5,"z":2.0},"constraints":122,"headerText":"create functionality for seeing all users who have joined the server from firebase","descriptionText":"Get active users in the server for assigned to option in ticket","assignedToNumber":0,"materialNumber":0}
C{"position":{"x":-44.25,"y":0.75,"z":-10.0},"rotation":{"x":0.0,"y":0.70710688829422,"z":0.0,"w":-0.7071066498756409},"title":""}
C{"position":{"x":-44.25,"y":0.75,"z":5.0},"rotation":{"x":0.0,"y":0.70710688829422,"z":0.0,"w":-0.7071066498756409},"title":""}
C{"position":{"x":-44.25,"y":0.75,"z":20.0},"rotation":{"x":0.0,"y":0.70710688829422,"z":0.0,"w":-0.7071066498756409},"title":""}
C{"position":{"x":-29.25,"y":0.75,"z":20.0},"rotation":{"x":0.0,"y":-2.1922258497397707e-7,"z":0.0,"w":1.0},"title":"sdasdw"}
C{"position":{"x":-14.25,"y":0.75,"z":20.0},"rotation":{"x":0.0,"y":-2.1922258497397707e-7,"z":0.0,"w":1.0},"title":"dsdssw"}
C{"position":{"x":0.75,"y":0.75,"z":20.0},"rotation":{"x":0.0,"y":-2.1922258497397707e-7,"z":0.0,"w":1.0},"title":"to do"}
C{"position":{"x":15.75,"y":0.75,"z":20.0},"rotation":{"x":0.0,"y":-2.1922258497397707e-7,"z":0.0,"w":1.0},"title":""}
C{"position":{"x":30.75,"y":0.75,"z":20.0},"rotation":{"x":0.0,"y":-2.1922258497397707e-7,"z":0.0,"w":1.0},"title":""}
C{"position":{"x":45.75,"y":0.75,"z":20.0},"rotation":{"x":0.0,"y":-2.1922258497397707e-7,"z":0.0,"w":1.0},"title":""}
C{"position":{"x":45.75,"y":0.75,"z":5.0},"rotation":{"x":0.0,"y":-0.7071066498756409,"z":0.0,"w":-0.7071069478988648},"title":""}
C{"position":{"x":45.75,"y":0.75,"z":-10.0},"rotation":{"x":0.0,"y":-0.7071066498756409,"z":0.0,"w":-0.7071069478988648},"title":""}
C{"position":{"x":30.75,"y":0.75,"z":-20.0},"rotation":{"x":0.0,"y":-1.0,"z":0.0,"w":-2.046077440809313e-7},"title":""}
T{"position":{"x":0.75,"y":2.500000476837158,"z":20.0},"rotation":{"x":-0.7071068286895752,"y":-1.5501379380111758e-7,"z":-1.5501379380111758e-7,"w":0.7071068286895752},"scale":{"x":4.5,"y":0.5,"z":2.0},"constraints":122,"headerText":"Add factory theme","descriptionText":"create a simple low poly box / factory place","assignedToNumber":1,"materialNumber":2}
T{"position":{"x":11.497323989868164,"y":0.25,"z":3.1764423847198488},"rotation":{"x":0.0,"y":0.0,"z":0.0,"w":1.0},"scale":{"x":4.5,"y":0.5,"z":2.0},"constraints":112,"headerText":"Header","descriptionText":"N/A","assignedToNumber":0,"materialNumber":0}
T{"position":{"x":11.05496597290039,"y":0.746907114982605,"z":2.991699457168579},"rotation":{"x":0.0,"y":0.0,"z":0.0,"w":1.0},"scale":{"x":4.5,"y":0.5,"z":2.0},"constraints":112,"headerText":"Header","descriptionText":"N/A","assignedToNumber":0,"materialNumber":0}
T{"position":{"x":1.0287504196166993,"y":6.499455451965332,"z":20.0},"rotation":{"x":-0.7071068286895752,"y":-1.5501379380111758e-7,"z":-1.5501379380111758e-7,"w":0.7071068286895752},"scale":{"x":4.5,"y":0.5,"z":2.0},"constraints":122,"headerText":"animations","descriptionText":"placing a column animation, ticket edit animation, air-tube animations, trash can animation, delete column animation","assignedToNumber":0,"materialNumber":0}
T{"position":{"x":10.88038444519043,"y":1.246907114982605,"z":2.70019268989563},"rotation":{"x":0.0,"y":0.0,"z":0.0,"w":1.0},"scale":{"x":4.5,"y":0.5,"z":2.0},"constraints":112,"headerText":"Header","descriptionText":"N/A","assignedToNumber":0,"materialNumber":0}
T{"position":{"x":10.45378589630127,"y":1.7456262111663819,"z":2.4600131511688234},"rotation":{"x":0.0,"y":0.0,"z":0.0,"w":1.0},"scale":{"x":4.5,"y":0.5,"z":2.0},"constraints":112,"headerText":"Header","descriptionText":"N/A","assignedToNumber":0,"materialNumber":0}
T{"position":{"x":6.02967643737793,"y":1.2049999237060547,"z":6.794780731201172},"rotation":{"x":-3.1875860173613549e-8,"y":-3.962818340141894e-8,"z":1.962695783674917e-8,"w":1.0},"scale":{"x":1.0,"y":1.0,"z":1.0},"constraints":0,"headerText":"Header","descriptionText":"N/A","assignedToNumber":0,"materialNumber":0}
T{"position":{"x":0.75,"y":4.49972677230835,"z":20.0},"rotation":{"x":-0.7071068286895752,"y":-1.5501379380111758e-7,"z":-1.5501379380111758e-7,"w":0.7071068286895752},"scale":{"x":4.5,"y":0.5,"z":2.0},"constraints":122,"headerText":"create functionality for seeing all users who have joined the server from firebase","descriptionText":"Get active users in the server for assigned to option in ticket","assignedToNumber":0,"materialNumber":0}
C{"position":{"x":-44.25,"y":0.75,"z":-10.0},"rotation":{"x":0.0,"y":0.70710688829422,"z":0.0,"w":-0.7071066498756409},"title":""}
C{"position":{"x":-44.25,"y":0.75,"z":5.0},"rotation":{"x":0.0,"y":0.70710688829422,"z":0.0,"w":-0.7071066498756409},"title":""}
C{"position":{"x":-44.25,"y":0.75,"z":20.0},"rotation":{"x":0.0,"y":0.70710688829422,"z":0.0,"w":-0.7071066498756409},"title":""}
C{"position":{"x":-29.25,"y":0.75,"z":20.0},"rotation":{"x":0.0,"y":-2.1922258497397707e-7,"z":0.0,"w":1.0},"title":"sdasdw"}
C{"position":{"x":-14.25,"y":0.75,"z":20.0},"rotation":{"x":0.0,"y":-2.1922258497397707e-7,"z":0.0,"w":1.0},"title":"dsdssw"}
C{"position":{"x":0.75,"y":0.75,"z":20.0},"rotation":{"x":0.0,"y":-2.1922258497397707e-7,"z":0.0,"w":1.0},"title":"to do"}
C{"position":{"x":15.75,"y":0.75,"z":20.0},"rotation":{"x":0.0,"y":-2.1922258497397707e-7,"z":0.0,"w":1.0},"title":""}
C{"position":{"x":30.75,"y":0.75,"z":20.0},"rotation":{"x":0.0,"y":-2.1922258497397707e-7,"z":0.0,"w":1.0},"title":""}
C{"position":{"x":45.75,"y":0.75,"z":20.0},"rotation":{"x":0.0,"y":-2.1922258497397707e-7,"z":0.0,"w":1.0},"title":""}
C{"position":{"x":45.75,"y":0.75,"z":5.0},"rotation":{"x":0.0,"y":-0.7071066498756409,"z":0.0,"w":-0.7071069478988648},"title":""}
C{"position":{"x":45.75,"y":0.75,"z":-10.0},"rotation":{"x":0.0,"y":-0.7071066498756409,"z":0.0,"w":-0.7071069478988648},"title":""}
C{"position":{"x":30.75,"y":0.75,"z":-20.0},"rotation":{"x":0.0,"y":-1.0,"z":0.0,"w":-2.046077440809313e-7},"title":""}
T{"position":{"x":0.75,"y":2.500000476837158,"z":20.0},"rotation":{"x":-0.7071068286895752,"y":-1.5501379380111758e-7,"z":-1.5501379380111758e-7,"w":0.7071068286895752},"scale":{"x":4.5,"y":0.5,"z":2.0},"constraints":122,"headerText":"Add factory theme","descriptionText":"create a simple low poly box / factory place","assignedToNumber":1,"materialNumber":2}
T{"position":{"x":11.497323989868164,"y":0.25,"z":3.1764423847198488},"rotation":{"x":0.0,"y":0.0,"z":0.0,"w":1.0},"scale":{"x":4.5,"y":0.5,"z":2.0},"constraints":112,"headerText":"Header","descriptionText":"N/A","assignedToNumber":0,"materialNumber":0}
T{"position":{"x":11.05496597290039,"y":0.746907114982605,"z":2.991699457168579},"rotation":{"x":0.0,"y":0.0,"z":0.0,"w":1.0},"scale":{"x":4.5,"y":0.5,"z":2.0},"constraints":112,"headerText":"Header","descriptionText":"N/A","assignedToNumber":0,"materialNumber":0}
T{"position":{"x":1.0287504196166993,"y":6.499455451965332,"z":20.0},"rotation":{"x":-0.7071068286895752,"y":-1.5501379380111758e-7,"z":-1.5501379380111758e-7,"w":0.7071068286895752},"scale":{"x":4.5,"y":0.5,"z":2.0},"constraints":122,"headerText":"animations","descriptionText":"placing a column animation, ticket edit animation, air-tube animations, trash can animation, delete column animation","assignedToNumber":0,"materialNumber":0}
T{"position":{"x":10.88038444519043,"y":1.246907114982605,"z":2.70019268989563},"rotation":{"x":0.0,"y":0.0,"z":0.0,"w":1.0},"scale":{"x":4.5,"y":0.5,"z":2.0},"constraints":112,"headerText":"Header","descriptionText":"N/A","assignedToNumber":0,"materialNumber":0}
T{"position":{"x":10.45378589630127,"y":1.7456262111663819,"z":2.4600131511688234},"rotation":{"x":0.0,"y":0.0,"z":0.0,"w":1.0},"scale":{"x":4.5,"y":0.5,"z":2.0},"constraints":112,"headerText":"Header","descriptionText":"N/A","assignedToNumber":0,"materialNumber":0}
T{"position":{"x":6.02967643737793,"y":1.2049999237060547,"z":6.794780731201172},"rotation":{"x":-3.1875860173613549e-8,"y":-3.962818340141894e-8,"z":1.962695783674917e-8,"w":1.0},"scale":{"x":1.0,"y":1.0,"z":1.0},"constraints":0,"headerText":"Header","descriptionText":"N/A","assignedToNumber":0,"materialNumber":0}
T{"position":{"x":0.75,"y":4.49972677230835,"z":20.0},"rotation":{"x":-0.7071068286895752,"y":-1.5501379380111758e-7,"z":-1.5501379380111758e-7,"w":0.7071068286895752},"scale":{"x":4.5,"y":0.5,"z":2.0},"constraints":122,"headerText":"create functionality for seeing all users who have joined the server from firebase","descriptionText":"Get active users in the server for assigned to option in ticket","assignedToNumber":0,"materialNumber":0}
C{"position":{"x":-44.25,"y":0.75,"z":-10.0},"rotation":{"x":0.0,"y":0.70710688829422,"z":0.0,"w":-0.7071066498756409},"title":""}
C{"position":{"x":-44.25,"y":0.75,"z":5.0},"rotation":{"x":0.0,"y":0.70710688829422,"z":0.0,"w":-0.7071066498756409},"title":""}
C{"position":{"x":-44.25,"y":0.75,"z":20.0},"rotation":{"x":0.0,"y":0.70710688829422,"z":0.0,"w":-0.7071066498756409},"title":""}
C{"position":{"x":-29.25,"y":0.75,"z":20.0},"rotation":{"x":0.0,"y":-2.1922258497397707e-7,"z":0.0,"w":1.0},"title":"sdasdw"}
C{"position":{"x":-14.25,"y":0.75,"z":20.0},"rotation":{"x":0.0,"y":-2.1922258497397707e-7,"z":0.0,"w":1.0},"title":"dsdssw"}
C{"position":{"x":0.75,"y":0.75,"z":20.0},"rotation":{"x":0.0,"y":-2.1922258497397707e-7,"z":0.0,"w":1.0},"title":"to do"}
C{"position":{"x":15.75,"y":0.75,"z":20.0},"rotation":{"x":0.0,"y":-2.1922258497397707e-7,"z":0.0,"w":1.0},"title":""}
C{"position":{"x":30.75,"y":0.75,"z":20.0},"rotation":{"x":0.0,"y":-2.1922258497397707e-7,"z":0.0,"w":1.0},"title":""}
C{"position":{"x":45.75,"y":0.75,"z":20.0},"rotation":{"x":0.0,"y":-2.1922258497397707e-7,"z":0.0,"w":1.0},"title":""}
C{"position":{"x":45.75,"y":0.75,"z":5.0},"rotation":{"x":0.0,"y":-0.7071066498756409,"z":0.0,"w":-0.7071069478988648},"title":""}
C{"position":{"x":45.75,"y":0.75,"z":-10.0},"rotation":{"x":0.0,"y":-0.7071066498756409,"z":0.0,"w":-0.7071069478988648},"title":""}
C{"position":{"x":30.75,"y":0.75,"z":-20.0},"rotation":{"x":0.0,"y":-1.0,"z":0.0,"w":-2.046077440809313e-7},"title":""}
T{"position":{"x":0.75,"y":2.500000476837158,"z":20.0},"rotation":{"x":-0.7071068286895752,"y":-1.5501379380111758e-7,"z":-1.5501379380111758e-7,"w":0.7071068286895752},"scale":{"x":4.5,"y":0.5,"z":2.0},"constraints":122,"headerText":"Add factory theme","descriptionText":"create a simple low poly box / factory place","assignedToNumber":1,"materialNumber":2}
T{"position":{"x":11.497323989868164,"y":0.25,"z":3.1764423847198488},"rotation":{"x":0.0,"y":0.0,"z":0.0,"w":1.0},"scale":{"x":4.5,"y":0.5,"z":2.0},"constraints":112,"headerText":"Header","descriptionText":"N/A","assignedToNumber":0,"materialNumber":0}
T{"position":{"x":11.05496597290039,"y":0.746907114982605,"z":2.991699457168579},"rotation":{"x":0.0,"y":0.0,"z":0.0,"w":1.0},"scale":{"x":4.5,"y":0.5,"z":2.0},"constraints":112,"headerText":"Header","descriptionText":"N/A","assignedToNumber":0,"materialNumber":0}
T{"position":{"x":1.0287504196166993,"y":6.499455451965332,"z":20.0},"rotation":{"x":-0.7071068286895752,"y":-1.5501379380111758e-7,"z":-1.5501379380111758e-7,"w":0.7071068286895752},"scale":{"x":4.5,"y":0.5,"z":2.0},"constraints":122,"headerText":"animations","descriptionText":"placing a column animation, ticket edit animation, air-tube animations, trash can animation, delete column animation","assignedToNumber":0,"materialNumber":0}
T{"position":{"x":10.88038444519043,"y":1.246907114982605,"z":2.70019268989563},"rotation":{"x":0.0,"y":0.0,"z":0.0,"w":1.0},"scale":{"x":4.5,"y":0.5,"z":2.0},"constraints":112,"headerText":"Header","descriptionText":"N/A","assignedToNumber":0,"materialNumber":0}
T{"position":{"x":10.45378589630127,"y":1.7456262111663819,"z":2.4600131511688234},"rotation":{"x":0.0,"y":0.0,"z":0.0,"w":1.0},"scale":{"x":4.5,"y":0.5,"z":2.0},"constraints":112,"headerText":"Header","descriptionText":"N/A","assignedToNumber":0,"materialNumber":0}
T{"position":{"x":6.02967643737793,"y":1.2049999237060547,"z":6.794780731201172},"rotation":{"x":-3.1875860173613549e-8,"y":-3.962818340141894e-8,"z":1.962695783674917e-8,"w":1.0},"scale":{"x":1.0,"y":1.0,"z":1.0},"constraints":0,"headerText":"Header","descriptionText":"N/A","assignedToNumber":0,"materialNumber":0}
T{"position":{"x":0.75,"y":4.49972677230835,"z":20.0},"rotation":{"x":-0.7071068286895752,"y":-1.5501379380111758e-7,"z":-1.5501379380111758e-7,"w":0.7071068286895752},"scale":{"x":4.5,"y":0.5,"z":2.0},"constraints":122,"headerText":"create functionality for seeing all users who have joined the server from firebase","descriptionText":"Get active users in the server for assigned to option in ticket","assignedToNumber":0,"materialNumber":0}
C{"position":{"x":-44.25,"y":0.75,"z":-10.0},"rotation":{"x":0.0,"y":0.70710688829422,"z":0.0,"w":-0.7071066498756409},"title":""}
C{"position":{"x":-44.25,"y":0.75,"z":5.0},"rotation":{"x":0.0,"y":0.70710688829422,"z":0.0,"w":-0.7071066498756409},"title":""}
C{"position":{"x":-44.25,"y":0.75,"z":20.0},"rotation":{"x":0.0,"y":0.70710688829422,"z":0.0,"w":-0.7071066498756409},"title":""}
C{"position":{"x":-29.25,"y":0.75,"z":20.0},"rotation":{"x":0.0,"y":-2.1922258497397707e-7,"z":0.0,"w":1.0},"title":"sdasdw"}
C{"position":{"x":-14.25,"y":0.75,"z":20.0},"rotation":{"x":0.0,"y":-2.1922258497397707e-7,"z":0.0,"w":1.0},"title":"dsdssw"}
C{"position":{"x":0.75,"y":0.75,"z":20.0},"rotation":{"x":0.0,"y":-2.1922258497397707e-7,"z":0.0,"w":1.0},"title":"to do"}
C{"position":{"x":15.75,"y":0.75,"z":20.0},"rotation":{"x":0.0,"y":-2.1922258497397707e-7,"z":0.0,"w":1.0},"title":""}
C{"position":{"x":30.75,"y":0.75,"z":20.0},"rotation":{"x":0.0,"y":-2.1922258497397707e-7,"z":0.0,"w":1.0},"title":""}
C{"position":{"x":45.75,"y":0.75,"z":20.0},"rotation":{"x":0.0,"y":-2.1922258497397707e-7,"z":0.0,"w":1.0},"title":""}
C{"position":{"x":45.75,"y":0.75,"z":5.0},"rotation":{"x":0.0,"y":-0.7071066498756409,"z":0.0,"w":-0.7071069478988648},"title":""}
C{"position":{"x":45.75,"y":0.75,"z":-10.0},"rotation":{"x":0.0,"y":-0.7071066498756409,"z":0.0,"w":-0.7071069478988648},"title":""}
C{"position":{"x":30.75,"y":0.75,"z":-20.0},"rotation":{"x":0.0,"y":-1.0,"z":0.0,"w":-2.046077440809313e-7},"title":""}
T{"position":{"x":0.75,"y":2.500000476837158,"z":20.0},"rotation":{"x":-0.7071068286895752,"y":-1.5501379380111758e-7,"z":-1.5501379380111758e-7,"w":0.7071068286895752},"scale":{"x":4.5,"y":0.5,"z":2.0},"constraints":122,"headerText":"Add factory theme","descriptionText":"create a simple low poly box / factory place","assignedToNumber":1,"materialNumber":2}
T{"position":{"x":11.497323989868164,"y":0.25,"z":3.1764423847198488},"rotation":{"x":0.0,"y":0.0,"z":0.0,"w":1.0},"scale":{"x":4.5,"y":0.5,"z":2.0},"constraints":112,"headerText":"Header","descriptionText":"N/A","assignedToNumber":0,"materialNumber":0}
T{"position":{"x":11.05496597290039,"y":0.746907114982605,"z":2.991699457168579},"rotation":{"x":0.0,"y":0.0,"z":0.0,"w":1.0},"scale":{"x":4.5,"y":0.5,"z":2.0},"constraints":112,"headerText":"Header","descriptionText":"N/A","assignedToNumber":0,"materialNumber":0}
T{"position":{"x":1.0287504196166993,"y":6.499455451965332,"z":20.0},"rotation":{"x":-0.7071068286895752,"y":-1.5501379380111758e-7,"z":-1.5501379380111758e-7,"w":0.7071068286895752},"scale":{"x":4.5,"y":0.5,"z":2.0},"constraints":122,"headerText":"animations","descriptionText":"placing a column animation, ticket edit animation, air-tube animations, trash can animation, delete column animation","assignedToNumber":0,"materialNumber":0}
T{"position":{"x":10.88038444519043,"y":1.246907114982605,"z":2.70019268989563},"rotation":{"x":0.0,"y":0.0,"z":0.0,"w":1.0},"scale":{"x":4.5,"y":0.5,"z":2.0},"constraints":112,"headerText":"Header","descriptionText":"N/A","assignedToNumber":0,"materialNumber":0}
T{"position":{"x":10.45378589630127,"y":1.7456262111663819,"z":2.4600131511688234},"rotation":{"x":0.0,"y":0.0,"z":0.0,"w":1.0},"scale":{"x":4.5,"y":0.5,"z":2.0},"constraints":112,"headerText":"Header","descriptionText":"N/A","assignedToNumber":0,"materialNumber":0}
T{"position":{"x":6.02967643737793,"y":1.2049999237060547,"z":6.794780731201172},"rotation":{"x":-3.1875860173613549e-8,"y":-3.962818340141894e-8,"z":1.962695783674917e-8,"w":1.0},"scale":{"x":1.0,"y":1.0,"z":1.0},"constraints":0,"headerText":"Header","descriptionText":"N/A","assignedToNumber":0,"materialNumber":0}
T{"position":{"x":0.75,"y":4.49972677230835,"z":20.0},"rotation":{"x":-0.7071068286895752,"y":-1.5501379380111758e-7,"z":-1.5501379380111758e-7,"w":0.7071068286895752},"scale":{"x":4.5,"y":0.5,"z":2.0},"constraints":122,"headerText":"create functionality for seeing all users who have joined the server from firebase","descriptionText":"Get active users in the server for assigned to option in ticket","assignedToNumber":0,"materialNumber":0}
C{"position":{"x":-44.25,"y":0.75,"z":-10.0},"rotation":{"x":0.0,"y":0.70710688829422,"z":0.0,"w":-0.7071066498756409},"title":""}
C{"position":{"x":-44.25,"y":0.75,"z":5.0},"rotation":{"x":0.0,"y":0.70710688829422,"z":0.0,"w":-0.7071066498756409},"title":""}
C{"position":{"x":-44.25,"y":0.75,"z":20.0},"rotation":{"x":0.0,"y":0.70710688829422,"z":0.0,"w":-0.7071066498756409},"title":""}
C{"position":{"x":-29.25,"y":0.75,"z":20.0},"rotation":{"x":0.0,"y":-2.1922258497397707e-7,"z":0.0,"w":1.0},"title":"sdasdw"}
C{"position":{"x":-14.25,"y":0.75,"z":20.0},"rotation":{"x":0.0,"y":-2.1922258497397707e-7,"z":0.0,"w":1.0},"title":"dsdssw"}
C{"position":{"x":0.75,"y":0.75,"z":20.0},"rotation":{"x":0.0,"y":-2.1922258497397707e-7,"z":0.0,"w":1.0},"title":"to do"}
C{"position":{"x":15.75,"y":0.75,"z":20.0},"rotation":{"x":0.0,"y":-2.1922258497397707e-7,"z":0.0,"w":1.0},"title":""}
C{"position":{"x":30.75,"y":0.75,"z":20.0},"rotation":{"x":0.0,"y":-2.1922258497397707e-7,"z":0.0,"w":1.0},"title":""}
C{"position":{"x":45.75,"y":0.75,"z":20.0},"rotation":{"x":0.0,"y":-2.1922258497397707e-7,"z":0.0,"w":1.0},"title":""}
C{"position":{"x":45.75,"y":0.75,"z":5.0},"rotation":{"x":0.0,"y":-0.7071066498756409,"z":0.0,"w":-0.7071069478988648},"title":""}
C{"position":{"x":45.75,"y":0.75,"z":-10.0},"rotation":{"x":0.0,"y":-0.7071066498756409,"z":0.0,"w":-0.7071069478988648},"title":""}
C{"position":{"x":30.75,"y":0.75,"z":-20.0},"rotation":{"x":0.0,"y":-1.0,"z":0.0,"w":-2.046077440809313e-7},"title":""}
T{"position":{"x":0.75,"y":2.500000476837158,"z":20.0},"rotation":{"x":-0.7071068286895752,"y":-1.5501379380111758e-7,"z":-1.5501379380111758e-7,"w":0.7071068286895752},"scale":{"x":4.5,"y":0.5,"z":2.0},"constraints":122,"headerText":"Add factory theme","descriptionText":"create a simple low poly box / factory place","assignedToNumber":1,"materialNumber":2}
T{"position":{"x":11.497323989868164,"y":0.25,"z":3.1764423847198488},"rotation":{"x":0.0,"y":0.0,"z":0.0,"w":1.0},"scale":{"x":4.5,"y":0.5,"z":2.0},"constraints":112,"headerText":"Header","descriptionText":"N/A","assignedToNumber":0,"materialNumber":0}
T{"position":{"x":11.05496597290039,"y":0.746907114982605,"z":2.991699457168579},"rotation":{"x":0.0,"y":0.0,"z":0.0,"w":1.0},"scale":{"x":4.5,"y":0.5,"z":2.0},"constraints":112,"headerText":"Header","descriptionText":"N/A","assignedToNumber":0,"materialNumber":0}
T{"position":{"x":1.0287504196166993,"y":6.499455451965332,"z":20.0},"rotation":{"x":-0.7071068286895752,"y":-1.5501379380111758e-7,"z":-1.5501379380111758e-7,"w":0.7071068286895752},"scale":{"x":4.5,"y":0.5,"z":2.0},"constraints":122,"headerText":"animations","descriptionText":"placing a column animation, ticket edit animation, air-tube animations, trash can animation, delete column animation","assignedToNumber":0,"materialNumber":0}
T{"position":{"x":10.88038444519043,"y":1.246907114982605,"z":2.70019268989563},"rotation":{"x":0.0,"y":0.0,"z":0.0,"w":1.0},"scale":{"x":4.5,"y":0.5,"z":2.0},"constraints":112,"headerText":"Header","descriptionText":"N/A","assignedToNumber":0,"materialNumber":0}
T{"position":{"x":10.45378589630127,"y":1.7456262111663819,"z":2.4600131511688234},"rotation":{"x":0.0,"y":0.0,"z":0.0,"w":1.0},"scale":{"x":4.5,"y":0.5,"z":2.0},"constraints":112,"headerText":"Header","descriptionText":"N/A","assignedToNumber":0,"materialNumber":0}
T{"position":{"x":6.02967643737793,"y":1.2049999237060547,"z":6.794780731201172},"rotation":{"x":-3.1875860173613549e-8,"y":-3.962818340141894e-8,"z":1.962695783674917e-8,"w":1.0},"scale":{"x":1.0,"y":1.0,"z":1.0},"constraints":0,"headerText":"Header","descriptionText":"N/A","assignedToNumber":0,"materialNumber":0}
T{"position":{"x":0.75,"y":4.49972677230835,"z":20.0},"rotation":{"x":-0.7071068286895752,"y":-1.5501379380111758e-7,"z":-1.5501379380111758e-7,"w":0.7071068286895752},"scale":{"x":4.5,"y":0.5,"z":2.0},"constraints":122,"headerText":"create functionality for seeing all users who have joined the server from firebase","descriptionText":"Get active users in the server for assigned to option in ticket","assignedToNumber":0,"materialNumber":0}
C{"position":{"x":-44.25,"y":0.75,"z":-10.0},"rotation":{"x":0.0,"y":0.70710688829422,"z":0.0,"w":-0.7071066498756409},"title":""}
C{"position":{"x":-44.25,"y":0.75,"z":5.0},"rotation":{"x":0.0,"y":0.70710688829422,"z":0.0,"w":-0.7071066498756409},"title":""}
C{"position":{"x":-44.25,"y":0.75,"z":20.0},"rotation":{"x":0.0,"y":0.70710688829422,"z":0.0,"w":-0.7071066498756409},"title":""}
C{"position":{"x":-29.25,"y":0.75,"z":20.0},"rotation":{"x":0.0,"y":-2.1922258497397707e-7,"z":0.0,"w":1.0},"title":"sdasdw"}
C{"position":{"x":-14.25,"y":0.75,"z":20.0},"rotation":{"x":0.0,"y":-2.1922258497397707e-7,"z":0.0,"w":1.0},"title":"dsdssw"}
C{"position":{"x":0.75,"y":0.75,"z":20.0},"rotation":{"x":0.0,"y":-2.1922258497397707e-7,"z":0.0,"w":1.0},"title":"to do"}
C{"position":{"x":15.75,"y":0.75,"z":20.0},"rotation":{"x":0.0,"y":-2.1922258497397707e-7,"z":0.0,"w":1.0},"title":""}
C{"position":{"x":30.75,"y":0.75,"z":20.0},"rotation":{"x":0.0,"y":-2.1922258497397707e-7,"z":0.0,"w":1.0},"title":""}
C{"position":{"x":45.75,"y":0.75,"z":20.0},"rotation":{"x":0.0,"y":-2.1922258497397707e-7,"z":0.0,"w":1.0},"title":""}
C{"position":{"x":45.75,"y":0.75,"z":5.0},"rotation":{"x":0.0,"y":-0.7071066498756409,"z":0.0,"w":-0.7071069478988648},"title":""}
C{"position":{"x":45.75,"y":0.75,"z":-10.0},"rotation":{"x":0.0,"y":-0.7071066498756409,"z":0.0,"w":-0.7071069478988648},"title":""}
C{"position":{"x":30.75,"y":0.75,"z":-20.0},"rotation":{"x":0.0,"y":-1.0,"z":0.0,"w":-2.046077440809313e-7},"title":""}
T{"position":{"x":0.75,"y":2.500000476837158,"z":20.0},"rotation":{"x":-0.7071068286895752,"y":-1.5501379380111758e-7,"z":-1.5501379380111758e-7,"w":0.7071068286895752},"scale":{"x":4.5,"y":0.5,"z":2.0},"constraints":122,"headerText":"Add factory theme","descriptionText":"create a simple low poly box / factory place","assignedToNumber":1,"materialNumber":2}
T{"position":{"x":11.497323989868164,"y":0.25,"z":3.1764423847198488},"rotation":{"x":0.0,"y":0.0,"z":0.0,"w":1.0},"scale":{"x":4.5,"y":0.5,"z":2.0},"constraints":112,"headerText":"Header","descriptionText":"N/A","assignedToNumber":0,"materialNumber":0}
T{"position":{"x":11.05496597290039,"y":0.746907114982605,"z":2.991699457168579},"rotation":{"x":0.0,"y":0.0,"z":0.0,"w":1.0},"scale":{"x":4.5,"y":0.5,"z":2.0},"constraints":112,"headerText":"Header","descriptionText":"N/A","assignedToNumber":0,"materialNumber":0}
T{"position":{"x":1.0287504196166993,"y":6.499455451965332,"z":20.0},"rotation":{"x":-0.7071068286895752,"y":-1.5501379380111758e-7,"z":-1.5501379380111758e-7,"w":0.7071068286895752},"scale":{"x":4.5,"y":0.5,"z":2.0},"constraints":122,"headerText":"animations","descriptionText":"placing a column animation, ticket edit animation, air-tube animations, trash can animation, delete column animation","assignedToNumber":0,"materialNumber":0}
T{"position":{"x":10.88038444519043,"y":1.246907114982605,"z":2.70019268989563},"rotation":{"x":0.0,"y":0.0,"z":0.0,"w":1.0},"scale":{"x":4.5,"y":0.5,"z":2.0},"constraints":112,"headerText":"Header","descriptionText":"N/A","assignedToNumber":0,"materialNumber":0}
T{"position":{"x":10.45378589630127,"y":1.7456262111663819,"z":2.4600131511688234},"rotation":{"x":0.0,"y":0.0,"z":0.0,"w":1.0},"scale":{"x":4.5,"y":0.5,"z":2.0},"constraints":112,"headerText":"Header","descriptionText":"N/A","assignedToNumber":0,"materialNumber":0}
T{"position":{"x":6.02967643737793,"y":1.2049999237060547,"z":6.794780731201172},"rotation":{"x":-3.1875860173613549e-8,"y":-3.962818340141894e-8,"z":1.962695783674917e-8,"w":1.0},"scale":{"x":1.0,"y":1.0,"z":1.0},"constraints":0,"headerText":"Header","descriptionText":"N/A","assignedToNumber":0,"materialNumber":0}
T{"position":{"x":0.75,"y":4.49972677230835,"z":20.0},"rotation":{"x":-0.7071068286895752,"y":-1.5501379380111758e-7,"z":-1.5501379380111758e-7,"w":0.7071068286895752},"scale":{"x":4.5,"y":0.5,"z":2.0},"constraints":122,"headerText":"create functionality for seeing all users who have joined the server from firebase","descriptionText":"Get active users in the server for assigned to option in ticket","assignedToNumber":0,"materialNumber":0}
C{"position":{"x":-44.25,"y":0.75,"z":-10.0},"rotation":{"x":0.0,"y":0.70710688829422,"z":0.0,"w":-0.7071066498756409},"title":""}
C{"position":{"x":-44.25,"y":0.75,"z":5.0},"rotation":{"x":0.0,"y":0.70710688829422,"z":0.0,"w":-0.7071066498756409},"title":""}
C{"position":{"x":-44.25,"y":0.75,"z":20.0},"rotation":{"x":0.0,"y":0.70710688829422,"z":0.0,"w":-0.7071066498756409},"title":""}
C{"position":{"x":-29.25,"y":0.75,"z":20.0},"rotation":{"x":0.0,"y":-2.1922258497397707e-7,"z":0.0,"w":1.0},"title":"sdasdw"}
C{"position":{"x":-14.25,"y":0.75,"z":20.0},"rotation":{"x":0.0,"y":-2.1922258497397707e-7,"z":0.0,"w":1.0},"title":"dsdssw"}
C{"position":{"x":0.75,"y":0.75,"z":20.0},"rotation":{"x":0.0,"y":-2.1922258497397707e-7,"z":0.0,"w":1.0},"title":"to do"}
C{"position":{"x":15.75,"y":0.75,"z":20.0},"rotation":{"x":0.0,"y":-2.1922258497397707e-7,"z":0.0,"w":1.0},"title":""}
C{"position":{"x":30.75,"y":0.75,"z":20.0},"rotation":{"x":0.0,"y":-2.1922258497397707e-7,"z":0.0,"w":1.0},"title":""}
C{"position":{"x":45.75,"y":0.75,"z":20.0},"rotation":{"x":0.0,"y":-2.1922258497397707e-7,"z":0.0,"w":1.0},"title":""}
C{"position":{"x":45.75,"y":0.75,"z":5.0},"rotation":{"x":0.0,"y":-0.7071066498756409,"z":0.0,"w":-0.7071069478988648},"title":""}
C{"position":{"x":45.75,"y":0.75,"z":-10.0},"rotation":{"x":0.0,"y":-0.7071066498756409,"z":0.0,"w":-0.7071069478988648},"title":""}
C{"position":{"x":30.75,"y":0.75,"z":-20.0},"rotation":{"x":0.0,"y":-1.0,"z":0.0,"w":-2.046077440809313e-7},"title":""}
T{"position":{"x":0.75,"y":2.500000476837158,"z":20.0},"rotation":{"x":-0.7071068286895752,"y":-1.5501379380111758e-7,"z":-1.5501379380111758e-7,"w":0.7071068286895752},"scale":{"x":4.5,"y":0.5,"z":2.0},"constraints":122,"headerText":"Add factory theme","descriptionText":"create a simple low poly box / factory place","assignedToNumber":1,"materialNumber":2}
T{"position":{"x":11.497323989868164,"y":0.25,"z":3.1764423847198488},"rotation":{"x":0.0,"y":0.0,"z":0.0,"w":1.0},"scale":{"x":4.5,"y":0.5,"z":2.0},"constraints":112,"headerText":"Header","descriptionText":"N/A","assignedToNumber":0,"materialNumber":0}
T{"position":{"x":11.05496597290039,"y":0.746907114982605,"z":2.991699457168579},"rotation":{"x":0.0,"y":0.0,"z":0.0,"w":1.0},"scale":{"x":4.5,"y":0.5,"z":2.0},"constraints":112,"headerText":"Header","descriptionText":"N/A","assignedToNumber":0,"materialNumber":0}
T{"position":{"x":1.0287504196166993,"y":6.499455451965332,"z":20.0},"rotation":{"x":-0.7071068286895752,"y":-1.5501379380111758e-7,"z":-1.5501379380111758e-7,"w":0.7071068286895752},"scale":{"x":4.5,"y":0.5,"z":2.0},"constraints":122,"headerText":"animations","descriptionText":"placing a column animation, ticket edit animation, air-tube animations, trash can animation, delete column animation","assignedToNumber":0,"materialNumber":0}
T{"position":{"x":10.88038444519043,"y":1.246907114982605,"z":2.70019268989563},"rotation":{"x":0.0,"y":0.0,"z":0.0,"w":1.0},"scale":{"x":4.5,"y":0.5,"z":2.0},"constraints":112,"headerText":"Header","descriptionText":"N/A","assignedToNumber":0,"materialNumber":0}
T{"position":{"x":10.45378589630127,"y":1.7456262111663819,"z":2.4600131511688234},"rotation":{"x":0.0,"y":0.0,"z":0.0,"w":1.0},"scale":{"x":4.5,"y":0.5,"z":2.0},"constraints":112,"headerText":"Header","descriptionText":"N/A","assignedToNumber":0,"materialNumber":0}
T{"position":{"x":6.02967643737793,"y":1.2049999237060547,"z":6.794780731201172},"rotation":{"x":-3.1875860173613549e-8,"y":-3.962818340141894e-8,"z":1.962695783674917e-8,"w":1.0},"scale":{"x":1.0,"y":1.0,"z":1.0},"constraints":0,"headerText":"Header","descriptionText":"N/A","assignedToNumber":0,"materialNumber":0}
T{"position":{"x":0.75,"y":4.49972677230835,"z":20.0},"rotation":{"x":-0.7071068286895752,"y":-1.5501379380111758e-7,"z":-1.5501379380111758e-7,"w":0.7071068286895752},"scale":{"x":4.5,"y":0.5,"z":2.0},"constraints":122,"headerText":"create functionality for seeing all users who have joined the server from firebase","descriptionText":"Get active users in the server for assigned to option in ticket","assignedToNumber":0,"materialNumber":0}
